{
"type": "FeatureCollection",
"name": "aoi",
"crs": { "type": "name", "properties": { "name": "urn:ogc:def:crs:OGC:1.3:CRS84" } },
"xy_coordinate_resolution": 1e-06,
"features": [
{ "type": "Feature", "properties": { "area_sq_km": 90.11, "buffer_meters": 200.0 }, "geometry": { "type": "Polygon", "coordinates": [ [ [ 84.555188, 27.857747 ], [ 84.554472, 27.858617 ], [ 84.554433, 27.859664 ], [ 84.555055, 27.860553 ], [ 84.556388, 27.861314 ], [ 84.558756, 27.861369 ], [ 84.559432, 27.861084 ], [ 84.560537, 27.860265 ], [ 84.566322, 27.86079 ], [ 84.571631, 27.863009 ], [ 84.572706, 27.864034 ], [ 84.57518, 27.865777 ], [ 84.575118, 27.866176 ], [ 84.574485, 27.867155 ], [ 84.574106, 27.870104 ], [ 84.574711, 27.872222 ], [ 84.575048, 27.872822 ], [ 84.577676, 27.874972 ], [ 84.579687, 27.876374 ], [ 84.583004, 27.878011 ], [ 84.585279, 27.880074 ], [ 84.586634, 27.880983 ], [ 84.588773, 27.882107 ], [ 84.590949, 27.882233 ], [ 84.591906, 27.882037 ], [ 84.59465, 27.880483 ], [ 84.597085, 27.878568 ], [ 84.599305, 27.879219 ], [ 84.601994, 27.87864 ], [ 84.605629, 27.876913 ], [ 84.607129, 27.875365 ], [ 84.60743, 27.874219 ], [ 84.608577, 27.873877 ], [ 84.611264, 27.874648 ], [ 84.611584, 27.874877 ], [ 84.611607, 27.876745 ], [ 84.612153, 27.878609 ], [ 84.613309, 27.880543 ], [ 84.613848, 27.881017 ], [ 84.615191, 27.881409 ], [ 84.61626, 27.882068 ], [ 84.618774, 27.883192 ], [ 84.62079, 27.883249 ], [ 84.624135, 27.88264 ], [ 84.627042, 27.881187 ], [ 84.629035, 27.879677 ], [ 84.629521, 27.879129 ], [ 84.629985, 27.87778 ], [ 84.630324, 27.874573 ], [ 84.630152, 27.87386 ], [ 84.62979, 27.873344 ], [ 84.631354, 27.872344 ], [ 84.634976, 27.871467 ], [ 84.636078, 27.870944 ], [ 84.636585, 27.870446 ], [ 84.636851, 27.869818 ], [ 84.637057, 27.868354 ], [ 84.636189, 27.865766 ], [ 84.636176, 27.865104 ], [ 84.636315, 27.863817 ], [ 84.636766, 27.862483 ], [ 84.638963, 27.862241 ], [ 84.640342, 27.862488 ], [ 84.642132, 27.863363 ], [ 84.644465, 27.863744 ], [ 84.64754, 27.863391 ], [ 84.65028, 27.862714 ], [ 84.650776, 27.862403 ], [ 84.652001, 27.861132 ], [ 84.65276, 27.859664 ], [ 84.652927, 27.858953 ], [ 84.652765, 27.858242 ], [ 84.652115, 27.857185 ], [ 84.650066, 27.854859 ], [ 84.656308, 27.854659 ], [ 84.659436, 27.853448 ], [ 84.661877, 27.85149 ], [ 84.662936, 27.849899 ], [ 84.663534, 27.848318 ], [ 84.663777, 27.846813 ], [ 84.664097, 27.846074 ], [ 84.66501, 27.844817 ], [ 84.666632, 27.841086 ], [ 84.665905, 27.837906 ], [ 84.66556, 27.834909 ], [ 84.664141, 27.832324 ], [ 84.663795, 27.831338 ], [ 84.663609, 27.83007 ], [ 84.665283, 27.828967 ], [ 84.667765, 27.827014 ], [ 84.669464, 27.824873 ], [ 84.670273, 27.823063 ], [ 84.670306, 27.821638 ], [ 84.669912, 27.820111 ], [ 84.671062, 27.819381 ], [ 84.673973, 27.819073 ], [ 84.675304, 27.818469 ], [ 84.678238, 27.817627 ], [ 84.679711, 27.816472 ], [ 84.681895, 27.815474 ], [ 84.684874, 27.812891 ], [ 84.685273, 27.812723 ], [ 84.694551, 27.811681 ], [ 84.697006, 27.810695 ], [ 84.701292, 27.810077 ], [ 84.704432, 27.809885 ], [ 84.70663, 27.809578 ], [ 84.708994, 27.808904 ], [ 84.709807, 27.808319 ], [ 84.7107, 27.806956 ], [ 84.711059, 27.804369 ], [ 84.710946, 27.803254 ], [ 84.711863, 27.802813 ], [ 84.713316, 27.802847 ], [ 84.715129, 27.804783 ], [ 84.717086, 27.806063 ], [ 84.718082, 27.806236 ], [ 84.719452, 27.806003 ], [ 84.721237, 27.805289 ], [ 84.722495, 27.803831 ], [ 84.723593, 27.803288 ], [ 84.728304, 27.802161 ], [ 84.728994, 27.801862 ], [ 84.72951, 27.801356 ], [ 84.731383, 27.798503 ], [ 84.733058, 27.798792 ], [ 84.73387, 27.799336 ], [ 84.734237, 27.80048 ], [ 84.734591, 27.803203 ], [ 84.735844, 27.805203 ], [ 84.736565, 27.805761 ], [ 84.739358, 27.806739 ], [ 84.74403, 27.806851 ], [ 84.745448, 27.807829 ], [ 84.746235, 27.808088 ], [ 84.748581, 27.807825 ], [ 84.750134, 27.807412 ], [ 84.752699, 27.808904 ], [ 84.753648, 27.809749 ], [ 84.753854, 27.810453 ], [ 84.753886, 27.814964 ], [ 84.754086, 27.815648 ], [ 84.754424, 27.816086 ], [ 84.756815, 27.817977 ], [ 84.759921, 27.820133 ], [ 84.76465, 27.821244 ], [ 84.765406, 27.821162 ], [ 84.767942, 27.820195 ], [ 84.770367, 27.81831 ], [ 84.772154, 27.815599 ], [ 84.77222, 27.815074 ], [ 84.772006, 27.813592 ], [ 84.772121, 27.812824 ], [ 84.772506, 27.812283 ], [ 84.774083, 27.811251 ], [ 84.777771, 27.814683 ], [ 84.778894, 27.815202 ], [ 84.77869, 27.81595 ], [ 84.778726, 27.816479 ], [ 84.779292, 27.817397 ], [ 84.779955, 27.817782 ], [ 84.78166, 27.818305 ], [ 84.782261, 27.818271 ], [ 84.782995, 27.817986 ], [ 84.784563, 27.816575 ], [ 84.787885, 27.816833 ], [ 84.790301, 27.816593 ], [ 84.791154, 27.816132 ], [ 84.792017, 27.815021 ], [ 84.792448, 27.814934 ], [ 84.795212, 27.815992 ], [ 84.797641, 27.816565 ], [ 84.800125, 27.816936 ], [ 84.80097, 27.817224 ], [ 84.803323, 27.818762 ], [ 84.805674, 27.819551 ], [ 84.809619, 27.819756 ], [ 84.810378, 27.819506 ], [ 84.811507, 27.818733 ], [ 84.811954, 27.818192 ], [ 84.812244, 27.817344 ], [ 84.812881, 27.816904 ], [ 84.817599, 27.81497 ], [ 84.818724, 27.813724 ], [ 84.818813, 27.814251 ], [ 84.819633, 27.816008 ], [ 84.82112, 27.818773 ], [ 84.821618, 27.819355 ], [ 84.82416, 27.820868 ], [ 84.827355, 27.821529 ], [ 84.828157, 27.821479 ], [ 84.830366, 27.820718 ], [ 84.833063, 27.819157 ], [ 84.837135, 27.815472 ], [ 84.837774, 27.813845 ], [ 84.837673, 27.811399 ], [ 84.838243, 27.809769 ], [ 84.839674, 27.808393 ], [ 84.840598, 27.806188 ], [ 84.841148, 27.804309 ], [ 84.841739, 27.804193 ], [ 84.843069, 27.804402 ], [ 84.844687, 27.805064 ], [ 84.846845, 27.808991 ], [ 84.848182, 27.810466 ], [ 84.849198, 27.810888 ], [ 84.852044, 27.810833 ], [ 84.856226, 27.809934 ], [ 84.860158, 27.809427 ], [ 84.862399, 27.808276 ], [ 84.864274, 27.806655 ], [ 84.866128, 27.804496 ], [ 84.866589, 27.804259 ], [ 84.867608, 27.804302 ], [ 84.86957, 27.804765 ], [ 84.86894, 27.805816 ], [ 84.86878, 27.806507 ], [ 84.868865, 27.807032 ], [ 84.869392, 27.808121 ], [ 84.870064, 27.808695 ], [ 84.873401, 27.810106 ], [ 84.876857, 27.810672 ], [ 84.87986, 27.811785 ], [ 84.882358, 27.812072 ], [ 84.88371, 27.81178 ], [ 84.884428, 27.811368 ], [ 84.885137, 27.811767 ], [ 84.886152, 27.811943 ], [ 84.887892, 27.811767 ], [ 84.893777, 27.810485 ], [ 84.894987, 27.80991 ], [ 84.897173, 27.809804 ], [ 84.899158, 27.808882 ], [ 84.900005, 27.809078 ], [ 84.9023, 27.809216 ], [ 84.904204, 27.810011 ], [ 84.906745, 27.809991 ], [ 84.909335, 27.808657 ], [ 84.910025, 27.807694 ], [ 84.91022, 27.806848 ], [ 84.911151, 27.807268 ], [ 84.912409, 27.807398 ], [ 84.914644, 27.806778 ], [ 84.915658, 27.806101 ], [ 84.916161, 27.805522 ], [ 84.91681, 27.80376 ], [ 84.917182, 27.80315 ], [ 84.918483, 27.802504 ], [ 84.919813, 27.802065 ], [ 84.922224, 27.800477 ], [ 84.923337, 27.800089 ], [ 84.924529, 27.80035 ], [ 84.926589, 27.801702 ], [ 84.930284, 27.803601 ], [ 84.932526, 27.805681 ], [ 84.935305, 27.807107 ], [ 84.936021, 27.80732 ], [ 84.937235, 27.807364 ], [ 84.938418, 27.807048 ], [ 84.939027, 27.808511 ], [ 84.941502, 27.812484 ], [ 84.944585, 27.816633 ], [ 84.946229, 27.818148 ], [ 84.948374, 27.819007 ], [ 84.949103, 27.819152 ], [ 84.950973, 27.819175 ], [ 84.953159, 27.818481 ], [ 84.955047, 27.820004 ], [ 84.956417, 27.820501 ], [ 84.959469, 27.82043 ], [ 84.961388, 27.819626 ], [ 84.964268, 27.817893 ], [ 84.965958, 27.816357 ], [ 84.966332, 27.815878 ], [ 84.967122, 27.813902 ], [ 84.968906, 27.814121 ], [ 84.969488, 27.813983 ], [ 84.970145, 27.813576 ], [ 84.971374, 27.812124 ], [ 84.972095, 27.810274 ], [ 84.97214, 27.807808 ], [ 84.972365, 27.807461 ], [ 84.973485, 27.806883 ], [ 84.974318, 27.806156 ], [ 84.974738, 27.805177 ], [ 84.974822, 27.803896 ], [ 84.975022, 27.803831 ], [ 84.976073, 27.803671 ], [ 84.977292, 27.803732 ], [ 84.979675, 27.804627 ], [ 84.981157, 27.804881 ], [ 84.982352, 27.805904 ], [ 84.984905, 27.807315 ], [ 84.987833, 27.807935 ], [ 84.990277, 27.807444 ], [ 84.991468, 27.806807 ], [ 84.992516, 27.805825 ], [ 84.99337, 27.806006 ], [ 84.996545, 27.806075 ], [ 84.998764, 27.805283 ], [ 85.000223, 27.804431 ], [ 85.001101, 27.804336 ], [ 85.001446, 27.804446 ], [ 85.002429, 27.80567 ], [ 85.005041, 27.807118 ], [ 85.006289, 27.807538 ], [ 85.007124, 27.807617 ], [ 85.009983, 27.808674 ], [ 85.010133, 27.80876 ], [ 85.009528, 27.811005 ], [ 85.009521, 27.811643 ], [ 85.010234, 27.813955 ], [ 85.011552, 27.815949 ], [ 85.013015, 27.820423 ], [ 85.013571, 27.821495 ], [ 85.013992, 27.824463 ], [ 85.013655, 27.825865 ], [ 85.013845, 27.827426 ], [ 85.014127, 27.827934 ], [ 85.015411, 27.829251 ], [ 85.017297, 27.830737 ], [ 85.017636, 27.831448 ], [ 85.016629, 27.831689 ], [ 85.015884, 27.83227 ], [ 85.015314, 27.833334 ], [ 85.015358, 27.834225 ], [ 85.015753, 27.835017 ], [ 85.016897, 27.836253 ], [ 85.018122, 27.836855 ], [ 85.01883, 27.837031 ], [ 85.017603, 27.839107 ], [ 85.016586, 27.841443 ], [ 85.016266, 27.843492 ], [ 85.01706, 27.845616 ], [ 85.017541, 27.846272 ], [ 85.019862, 27.848242 ], [ 85.023067, 27.849725 ], [ 85.02646, 27.850732 ], [ 85.026812, 27.850967 ], [ 85.026958, 27.852769 ], [ 85.028077, 27.854692 ], [ 85.028543, 27.855208 ], [ 85.030696, 27.856844 ], [ 85.031463, 27.857133 ], [ 85.034253, 27.857369 ], [ 85.040813, 27.858563 ], [ 85.043672, 27.859241 ], [ 85.04657, 27.858713 ], [ 85.047166, 27.85829 ], [ 85.048181, 27.857096 ], [ 85.049056, 27.857352 ], [ 85.050523, 27.857506 ], [ 85.053033, 27.859185 ], [ 85.05482, 27.859706 ], [ 85.05679, 27.860783 ], [ 85.058579, 27.862017 ], [ 85.059381, 27.862211 ], [ 85.060797, 27.862168 ], [ 85.062032, 27.862437 ], [ 85.065112, 27.862472 ], [ 85.065464, 27.863317 ], [ 85.066001, 27.863902 ], [ 85.067219, 27.864383 ], [ 85.067986, 27.864309 ], [ 85.068666, 27.863986 ], [ 85.069336, 27.863313 ], [ 85.069701, 27.862602 ], [ 85.070773, 27.862472 ], [ 85.072728, 27.86145 ], [ 85.075093, 27.857299 ], [ 85.075258, 27.856689 ], [ 85.076318, 27.857125 ], [ 85.077427, 27.85797 ], [ 85.080906, 27.859455 ], [ 85.081709, 27.85956 ], [ 85.084742, 27.859411 ], [ 85.086183, 27.859776 ], [ 85.086273, 27.86103 ], [ 85.08702, 27.862908 ], [ 85.087405, 27.86349 ], [ 85.088003, 27.863906 ], [ 85.091568, 27.865489 ], [ 85.092586, 27.865571 ], [ 85.093921, 27.865272 ], [ 85.095893, 27.863689 ], [ 85.098243, 27.862495 ], [ 85.102944, 27.861053 ], [ 85.105081, 27.861321 ], [ 85.107482, 27.864652 ], [ 85.109877, 27.867097 ], [ 85.110949, 27.869345 ], [ 85.112462, 27.873317 ], [ 85.11366, 27.874756 ], [ 85.114259, 27.87521 ], [ 85.115056, 27.875518 ], [ 85.117285, 27.875658 ], [ 85.120328, 27.877521 ], [ 85.122153, 27.877924 ], [ 85.122747, 27.878967 ], [ 85.124157, 27.883034 ], [ 85.124503, 27.883621 ], [ 85.131742, 27.889091 ], [ 85.13323, 27.891687 ], [ 85.133049, 27.894881 ], [ 85.133428, 27.897346 ], [ 85.134515, 27.901731 ], [ 85.135278, 27.902986 ], [ 85.135601, 27.904729 ], [ 85.135439, 27.906291 ], [ 85.133851, 27.9101 ], [ 85.131475, 27.914076 ], [ 85.131444, 27.915726 ], [ 85.131628, 27.916407 ], [ 85.13209, 27.916975 ], [ 85.134634, 27.919078 ], [ 85.135844, 27.919753 ], [ 85.137232, 27.92116 ], [ 85.138792, 27.921527 ], [ 85.139961, 27.921148 ], [ 85.141432, 27.922333 ], [ 85.142302, 27.922787 ], [ 85.144606, 27.923162 ], [ 85.146065, 27.923593 ], [ 85.146141, 27.925139 ], [ 85.146775, 27.926613 ], [ 85.146068, 27.927145 ], [ 85.145423, 27.928104 ], [ 85.144865, 27.930054 ], [ 85.14663, 27.935234 ], [ 85.14708, 27.936007 ], [ 85.147616, 27.936501 ], [ 85.148321, 27.936781 ], [ 85.149211, 27.936786 ], [ 85.151658, 27.938019 ], [ 85.15505, 27.940794 ], [ 85.154926, 27.941811 ], [ 85.155134, 27.94271 ], [ 85.155759, 27.943407 ], [ 85.156613, 27.943741 ], [ 85.157214, 27.944948 ], [ 85.157364, 27.945653 ], [ 85.157128, 27.946681 ], [ 85.157322, 27.947345 ], [ 85.157782, 27.947898 ], [ 85.159127, 27.948789 ], [ 85.159274, 27.949122 ], [ 85.159522, 27.950234 ], [ 85.159696, 27.952429 ], [ 85.159221, 27.954057 ], [ 85.159217, 27.954809 ], [ 85.1595, 27.955524 ], [ 85.159061, 27.956719 ], [ 85.159177, 27.957533 ], [ 85.159427, 27.95801 ], [ 85.159979, 27.958508 ], [ 85.160511, 27.958738 ], [ 85.161306, 27.958881 ], [ 85.16207, 27.958757 ], [ 85.163836, 27.95961 ], [ 85.164467, 27.960091 ], [ 85.165411, 27.960427 ], [ 85.166115, 27.96153 ], [ 85.166068, 27.962171 ], [ 85.16633, 27.962891 ], [ 85.166309, 27.96373 ], [ 85.166619, 27.964616 ], [ 85.167236, 27.965312 ], [ 85.168168, 27.965723 ], [ 85.168933, 27.966468 ], [ 85.169458, 27.96675 ], [ 85.169773, 27.967562 ], [ 85.170276, 27.968071 ], [ 85.171111, 27.968487 ], [ 85.172054, 27.969217 ], [ 85.172799, 27.969423 ], [ 85.174019, 27.969485 ], [ 85.174501, 27.970018 ], [ 85.175906, 27.970881 ], [ 85.178845, 27.971816 ], [ 85.17859, 27.972956 ], [ 85.179013, 27.974889 ], [ 85.178988, 27.975518 ], [ 85.17797, 27.978112 ], [ 85.177142, 27.9792 ], [ 85.17696, 27.979865 ], [ 85.177322, 27.98668 ], [ 85.178313, 27.989568 ], [ 85.178945, 27.99048 ], [ 85.179444, 27.992831 ], [ 85.180614, 27.996052 ], [ 85.181868, 27.998096 ], [ 85.181829, 27.998658 ], [ 85.18117, 28.000205 ], [ 85.181082, 28.005297 ], [ 85.179908, 28.010138 ], [ 85.179721, 28.011528 ], [ 85.179849, 28.012491 ], [ 85.180472, 28.014241 ], [ 85.180957, 28.01478 ], [ 85.1824, 28.015769 ], [ 85.183268, 28.017504 ], [ 85.182711, 28.018315 ], [ 85.18205, 28.020147 ], [ 85.182139, 28.022769 ], [ 85.183368, 28.02581 ], [ 85.184167, 28.026899 ], [ 85.187407, 28.029023 ], [ 85.1899, 28.030288 ], [ 85.190595, 28.03121 ], [ 85.190903, 28.032086 ], [ 85.191014, 28.033008 ], [ 85.190729, 28.034151 ], [ 85.190854, 28.034891 ], [ 85.190642, 28.035908 ], [ 85.190487, 28.038355 ], [ 85.19135, 28.040894 ], [ 85.192024, 28.041982 ], [ 85.193252, 28.043458 ], [ 85.196714, 28.045815 ], [ 85.197319, 28.046525 ], [ 85.198892, 28.047655 ], [ 85.200754, 28.050787 ], [ 85.201161, 28.051831 ], [ 85.203953, 28.054851 ], [ 85.204601, 28.055352 ], [ 85.205322, 28.056973 ], [ 85.205192, 28.057985 ], [ 85.205295, 28.058768 ], [ 85.204319, 28.060253 ], [ 85.204234, 28.061412 ], [ 85.203868, 28.061866 ], [ 85.203642, 28.062527 ], [ 85.203825, 28.063474 ], [ 85.203417, 28.06439 ], [ 85.20318, 28.065645 ], [ 85.202519, 28.067532 ], [ 85.202691, 28.069027 ], [ 85.203006, 28.069831 ], [ 85.204419, 28.071971 ], [ 85.204899, 28.073911 ], [ 85.205389, 28.074463 ], [ 85.208097, 28.076504 ], [ 85.209178, 28.076917 ], [ 85.209656, 28.077674 ], [ 85.210104, 28.078047 ], [ 85.210855, 28.078328 ], [ 85.211896, 28.078284 ], [ 85.212503, 28.07851 ], [ 85.213135, 28.079189 ], [ 85.214153, 28.079789 ], [ 85.214358, 28.081291 ], [ 85.21506, 28.08215 ], [ 85.216781, 28.082702 ], [ 85.217493, 28.083447 ], [ 85.218447, 28.083746 ], [ 85.219046, 28.084473 ], [ 85.219656, 28.084896 ], [ 85.220733, 28.085104 ], [ 85.221731, 28.084863 ], [ 85.222734, 28.08557 ], [ 85.223614, 28.085805 ], [ 85.224123, 28.08617 ], [ 85.224856, 28.087541 ], [ 85.225742, 28.088187 ], [ 85.226134, 28.088681 ], [ 85.229135, 28.090523 ], [ 85.229778, 28.091247 ], [ 85.231206, 28.092062 ], [ 85.231641, 28.092569 ], [ 85.233037, 28.093567 ], [ 85.23399, 28.093829 ], [ 85.235606, 28.093695 ], [ 85.237321, 28.093791 ], [ 85.237812, 28.093888 ], [ 85.238967, 28.094513 ], [ 85.241604, 28.094735 ], [ 85.243746, 28.094832 ], [ 85.245255, 28.094631 ], [ 85.246451, 28.094751 ], [ 85.248146, 28.09462 ], [ 85.249269, 28.094989 ], [ 85.250683, 28.095197 ], [ 85.254706, 28.0971 ], [ 85.256789, 28.097542 ], [ 85.25835, 28.097577 ], [ 85.25878, 28.097732 ], [ 85.260255, 28.099006 ], [ 85.261465, 28.09964 ], [ 85.261933, 28.100979 ], [ 85.263152, 28.102236 ], [ 85.263832, 28.102614 ], [ 85.265588, 28.104225 ], [ 85.26859, 28.105961 ], [ 85.269407, 28.107364 ], [ 85.270876, 28.108664 ], [ 85.272534, 28.109429 ], [ 85.273286, 28.11067 ], [ 85.274297, 28.111289 ], [ 85.274484, 28.111977 ], [ 85.274886, 28.112485 ], [ 85.27488, 28.11321 ], [ 85.275215, 28.114316 ], [ 85.275977, 28.115252 ], [ 85.276778, 28.115723 ], [ 85.277507, 28.115937 ], [ 85.278273, 28.115897 ], [ 85.279194, 28.115552 ], [ 85.279469, 28.115921 ], [ 85.279508, 28.11649 ], [ 85.279967, 28.117559 ], [ 85.280444, 28.118115 ], [ 85.282117, 28.118824 ], [ 85.282953, 28.119507 ], [ 85.284152, 28.119707 ], [ 85.284844, 28.120159 ], [ 85.285642, 28.120326 ], [ 85.285898, 28.121365 ], [ 85.286751, 28.122452 ], [ 85.287791, 28.123049 ], [ 85.288678, 28.123196 ], [ 85.289222, 28.123999 ], [ 85.289845, 28.124476 ], [ 85.290907, 28.124948 ], [ 85.292919, 28.126847 ], [ 85.295474, 28.128087 ], [ 85.29643, 28.129833 ], [ 85.29749, 28.130714 ], [ 85.297601, 28.13119 ], [ 85.297519, 28.132138 ], [ 85.297795, 28.132822 ], [ 85.298497, 28.133827 ], [ 85.299492, 28.134636 ], [ 85.301478, 28.137052 ], [ 85.302836, 28.13991 ], [ 85.305367, 28.142689 ], [ 85.307271, 28.143745 ], [ 85.308394, 28.144633 ], [ 85.309902, 28.145073 ], [ 85.311088, 28.146647 ], [ 85.312052, 28.147399 ], [ 85.316338, 28.149616 ], [ 85.320435, 28.152436 ], [ 85.322499, 28.152951 ], [ 85.323203, 28.153298 ], [ 85.326664, 28.156508 ], [ 85.32803, 28.157546 ], [ 85.329094, 28.158134 ], [ 85.330616, 28.159783 ], [ 85.333163, 28.161209 ], [ 85.333783, 28.162324 ], [ 85.334797, 28.163431 ], [ 85.335188, 28.164488 ], [ 85.336587, 28.165842 ], [ 85.337243, 28.166248 ], [ 85.338882, 28.166728 ], [ 85.339089, 28.167422 ], [ 85.339517, 28.167974 ], [ 85.339964, 28.173032 ], [ 85.340059, 28.177976 ], [ 85.339481, 28.179647 ], [ 85.338118, 28.180558 ], [ 85.337675, 28.181134 ], [ 85.33747, 28.182056 ], [ 85.337526, 28.182722 ], [ 85.337851, 28.183325 ], [ 85.338915, 28.184259 ], [ 85.339936, 28.18468 ], [ 85.34107, 28.184612 ], [ 85.341354, 28.184862 ], [ 85.341608, 28.185648 ], [ 85.34251, 28.187096 ], [ 85.343102, 28.187748 ], [ 85.343766, 28.190366 ], [ 85.344224, 28.190889 ], [ 85.345231, 28.191556 ], [ 85.34582, 28.192487 ], [ 85.346692, 28.194508 ], [ 85.347267, 28.196702 ], [ 85.347811, 28.197971 ], [ 85.348304, 28.198533 ], [ 85.349321, 28.199187 ], [ 85.349761, 28.200198 ], [ 85.349681, 28.201273 ], [ 85.350061, 28.203426 ], [ 85.351067, 28.205412 ], [ 85.351913, 28.206407 ], [ 85.351808, 28.207009 ], [ 85.351247, 28.207938 ], [ 85.350632, 28.209838 ], [ 85.350795, 28.21052 ], [ 85.351816, 28.212018 ], [ 85.352048, 28.214243 ], [ 85.352014, 28.215615 ], [ 85.351635, 28.216511 ], [ 85.351725, 28.217465 ], [ 85.352107, 28.218083 ], [ 85.353077, 28.218658 ], [ 85.354795, 28.220704 ], [ 85.355258, 28.221055 ], [ 85.355751, 28.222408 ], [ 85.356472, 28.223264 ], [ 85.357396, 28.223905 ], [ 85.357795, 28.224426 ], [ 85.358201, 28.225969 ], [ 85.3582, 28.228248 ], [ 85.357762, 28.230462 ], [ 85.357407, 28.231122 ], [ 85.357384, 28.231891 ], [ 85.356207, 28.233632 ], [ 85.355945, 28.234423 ], [ 85.355115, 28.235385 ], [ 85.354872, 28.236059 ], [ 85.354933, 28.237033 ], [ 85.354755, 28.237829 ], [ 85.355098, 28.238805 ], [ 85.354819, 28.239637 ], [ 85.35464, 28.242148 ], [ 85.354733, 28.242704 ], [ 85.356953, 28.245625 ], [ 85.36088, 28.24858 ], [ 85.361158, 28.249198 ], [ 85.361762, 28.249891 ], [ 85.361715, 28.250634 ], [ 85.361116, 28.251019 ], [ 85.360537, 28.251691 ], [ 85.360341, 28.252747 ], [ 85.360751, 28.253708 ], [ 85.361798, 28.254389 ], [ 85.361622, 28.255449 ], [ 85.361693, 28.256016 ], [ 85.362152, 28.257677 ], [ 85.363013, 28.259068 ], [ 85.364006, 28.259932 ], [ 85.364851, 28.260329 ], [ 85.365288, 28.260835 ], [ 85.366504, 28.261702 ], [ 85.368933, 28.262366 ], [ 85.370292, 28.265738 ], [ 85.371404, 28.267143 ], [ 85.373281, 28.268318 ], [ 85.373528, 28.268728 ], [ 85.374344, 28.272443 ], [ 85.374255, 28.273102 ], [ 85.373512, 28.274762 ], [ 85.373366, 28.275848 ], [ 85.373602, 28.277056 ], [ 85.374134, 28.27823 ], [ 85.373598, 28.279529 ], [ 85.373452, 28.28048 ], [ 85.373512, 28.281183 ], [ 85.373756, 28.281668 ], [ 85.374476, 28.282272 ], [ 85.375233, 28.282491 ], [ 85.379453, 28.282228 ], [ 85.380545, 28.281714 ], [ 85.381739, 28.280275 ], [ 85.381881, 28.279581 ], [ 85.381701, 28.278405 ], [ 85.380358, 28.276734 ], [ 85.380719, 28.274984 ], [ 85.381474, 28.273053 ], [ 85.381489, 28.27129 ], [ 85.380185, 28.267699 ], [ 85.379752, 28.26694 ], [ 85.380149, 28.266449 ], [ 85.380352, 28.265786 ], [ 85.379946, 28.26394 ], [ 85.379641, 28.2635 ], [ 85.37904, 28.263064 ], [ 85.376241, 28.262256 ], [ 85.375341, 28.260445 ], [ 85.374405, 28.259384 ], [ 85.372056, 28.258478 ], [ 85.370702, 28.257255 ], [ 85.369381, 28.25644 ], [ 85.369134, 28.256057 ], [ 85.369328, 28.255209 ], [ 85.369091, 28.253172 ], [ 85.369223, 28.252198 ], [ 85.36907, 28.25135 ], [ 85.369244, 28.250636 ], [ 85.368998, 28.24976 ], [ 85.368257, 28.248748 ], [ 85.367611, 28.247375 ], [ 85.365549, 28.245118 ], [ 85.364972, 28.24399 ], [ 85.363066, 28.242857 ], [ 85.362036, 28.242579 ], [ 85.361432, 28.241751 ], [ 85.361727, 28.239786 ], [ 85.361548, 28.238752 ], [ 85.362036, 28.237378 ], [ 85.362334, 28.235586 ], [ 85.363643, 28.23342 ], [ 85.363705, 28.232004 ], [ 85.363568, 28.231054 ], [ 85.364212, 28.228477 ], [ 85.36499, 28.228066 ], [ 85.365754, 28.227186 ], [ 85.365981, 28.226687 ], [ 85.366007, 28.225972 ], [ 85.365398, 28.224883 ], [ 85.364453, 28.224378 ], [ 85.364058, 28.221432 ], [ 85.363779, 28.220794 ], [ 85.363253, 28.220293 ], [ 85.362666, 28.220013 ], [ 85.361958, 28.219305 ], [ 85.36074, 28.219016 ], [ 85.359074, 28.217386 ], [ 85.358802, 28.216697 ], [ 85.357832, 28.215328 ], [ 85.357789, 28.212868 ], [ 85.357981, 28.211798 ], [ 85.357713, 28.211137 ], [ 85.357253, 28.210637 ], [ 85.357241, 28.210244 ], [ 85.357319, 28.209396 ], [ 85.357805, 28.207912 ], [ 85.357953, 28.206017 ], [ 85.357536, 28.204526 ], [ 85.356112, 28.202488 ], [ 85.355955, 28.20147 ], [ 85.356168, 28.200805 ], [ 85.356084, 28.199969 ], [ 85.355512, 28.199169 ], [ 85.354886, 28.197069 ], [ 85.353168, 28.195359 ], [ 85.353252, 28.19464 ], [ 85.353081, 28.193949 ], [ 85.351584, 28.191278 ], [ 85.350721, 28.189236 ], [ 85.34905, 28.18648 ], [ 85.348432, 28.184932 ], [ 85.347942, 28.184347 ], [ 85.347417, 28.184047 ], [ 85.346357, 28.181551 ], [ 85.345679, 28.180687 ], [ 85.345875, 28.179899 ], [ 85.345924, 28.177456 ], [ 85.345482, 28.174226 ], [ 85.345903, 28.17028 ], [ 85.345719, 28.168226 ], [ 85.345921, 28.166491 ], [ 85.345692, 28.165537 ], [ 85.34585, 28.164178 ], [ 85.345621, 28.162856 ], [ 85.344928, 28.161838 ], [ 85.3439, 28.16123 ], [ 85.34137, 28.161028 ], [ 85.339959, 28.159545 ], [ 85.338833, 28.158784 ], [ 85.338477, 28.157917 ], [ 85.337915, 28.157232 ], [ 85.33681, 28.156575 ], [ 85.335209, 28.156125 ], [ 85.334663, 28.155807 ], [ 85.333242, 28.154448 ], [ 85.33169, 28.153804 ], [ 85.327794, 28.149641 ], [ 85.326772, 28.148841 ], [ 85.323474, 28.147802 ], [ 85.322895, 28.147098 ], [ 85.321645, 28.146354 ], [ 85.32029, 28.145194 ], [ 85.316952, 28.143136 ], [ 85.314938, 28.142168 ], [ 85.312715, 28.13959 ], [ 85.310944, 28.139047 ], [ 85.310031, 28.138999 ], [ 85.309284, 28.138451 ], [ 85.309036, 28.138147 ], [ 85.308324, 28.136323 ], [ 85.307594, 28.135623 ], [ 85.307009, 28.135315 ], [ 85.306513, 28.134292 ], [ 85.305533, 28.133471 ], [ 85.304564, 28.131038 ], [ 85.304169, 28.130609 ], [ 85.303467, 28.130203 ], [ 85.303408, 28.129362 ], [ 85.303054, 28.128537 ], [ 85.302587, 28.128012 ], [ 85.301591, 28.127457 ], [ 85.301512, 28.126497 ], [ 85.300803, 28.125547 ], [ 85.299689, 28.12487 ], [ 85.298938, 28.124035 ], [ 85.296889, 28.122956 ], [ 85.293538, 28.119968 ], [ 85.292083, 28.11919 ], [ 85.291332, 28.11834 ], [ 85.290601, 28.117903 ], [ 85.289812, 28.116809 ], [ 85.286474, 28.115015 ], [ 85.285889, 28.114067 ], [ 85.285091, 28.113455 ], [ 85.284222, 28.111877 ], [ 85.282962, 28.110701 ], [ 85.281535, 28.10996 ], [ 85.280679, 28.108691 ], [ 85.279529, 28.107939 ], [ 85.278723, 28.106801 ], [ 85.278051, 28.106451 ], [ 85.277162, 28.106302 ], [ 85.275624, 28.105098 ], [ 85.274613, 28.104766 ], [ 85.274358, 28.104223 ], [ 85.273797, 28.103635 ], [ 85.27329, 28.102613 ], [ 85.271445, 28.101341 ], [ 85.27037, 28.100187 ], [ 85.269191, 28.099497 ], [ 85.268099, 28.099384 ], [ 85.266877, 28.098556 ], [ 85.266788, 28.097278 ], [ 85.266558, 28.096453 ], [ 85.265822, 28.095589 ], [ 85.265071, 28.095295 ], [ 85.264026, 28.095297 ], [ 85.26331, 28.094498 ], [ 85.262306, 28.093771 ], [ 85.25957, 28.09266 ], [ 85.257781, 28.092527 ], [ 85.256864, 28.092021 ], [ 85.253352, 28.090714 ], [ 85.252402, 28.090662 ], [ 85.251665, 28.090346 ], [ 85.249272, 28.089937 ], [ 85.245934, 28.089951 ], [ 85.244586, 28.08961 ], [ 85.242175, 28.089534 ], [ 85.241149, 28.089121 ], [ 85.240131, 28.089056 ], [ 85.238365, 28.088658 ], [ 85.237433, 28.088659 ], [ 85.233511, 28.087465 ], [ 85.232257, 28.086149 ], [ 85.232139, 28.085575 ], [ 85.23169, 28.084741 ], [ 85.231194, 28.084251 ], [ 85.230868, 28.083555 ], [ 85.229943, 28.082627 ], [ 85.226718, 28.080469 ], [ 85.225359, 28.080152 ], [ 85.22454, 28.080209 ], [ 85.224055, 28.079956 ], [ 85.223682, 28.079312 ], [ 85.22309, 28.078869 ], [ 85.22157, 28.078489 ], [ 85.220722, 28.078481 ], [ 85.219301, 28.076788 ], [ 85.218222, 28.076148 ], [ 85.215594, 28.074113 ], [ 85.212474, 28.072514 ], [ 85.21153, 28.070769 ], [ 85.210233, 28.069454 ], [ 85.210113, 28.068909 ], [ 85.209705, 28.068219 ], [ 85.208896, 28.067576 ], [ 85.208888, 28.067191 ], [ 85.209288, 28.066644 ], [ 85.209602, 28.065708 ], [ 85.209532, 28.064423 ], [ 85.21009, 28.063229 ], [ 85.210467, 28.061903 ], [ 85.211245, 28.06094 ], [ 85.211452, 28.06015 ], [ 85.211175, 28.059138 ], [ 85.211256, 28.057863 ], [ 85.211565, 28.057348 ], [ 85.21172, 28.056434 ], [ 85.211424, 28.055615 ], [ 85.211138, 28.053579 ], [ 85.21076, 28.052936 ], [ 85.210601, 28.052258 ], [ 85.210174, 28.05169 ], [ 85.208976, 28.051053 ], [ 85.20709, 28.049374 ], [ 85.206515, 28.048527 ], [ 85.205801, 28.048144 ], [ 85.204885, 28.046101 ], [ 85.203417, 28.044617 ], [ 85.202146, 28.042488 ], [ 85.201324, 28.04202 ], [ 85.200378, 28.041943 ], [ 85.198604, 28.040885 ], [ 85.197449, 28.039808 ], [ 85.19704, 28.039034 ], [ 85.197265, 28.036776 ], [ 85.197186, 28.03532 ], [ 85.197589, 28.032474 ], [ 85.196948, 28.030436 ], [ 85.195583, 28.027535 ], [ 85.194294, 28.026017 ], [ 85.192139, 28.02438 ], [ 85.188661, 28.022834 ], [ 85.188403, 28.022507 ], [ 85.189227, 28.021736 ], [ 85.190204, 28.02041 ], [ 85.190458, 28.018187 ], [ 85.190251, 28.016492 ], [ 85.190016, 28.015968 ], [ 85.187973, 28.013945 ], [ 85.187512, 28.013404 ], [ 85.18729, 28.012844 ], [ 85.18723, 28.010205 ], [ 85.187491, 28.008343 ], [ 85.188056, 28.006654 ], [ 85.187851, 28.005397 ], [ 85.189384, 28.000708 ], [ 85.189209, 27.99776 ], [ 85.188502, 27.995897 ], [ 85.18812, 27.99543 ], [ 85.187121, 27.994706 ], [ 85.186783, 27.993967 ], [ 85.186818, 27.992994 ], [ 85.186604, 27.991402 ], [ 85.185725, 27.989231 ], [ 85.184361, 27.983925 ], [ 85.1838, 27.982986 ], [ 85.183646, 27.982086 ], [ 85.185525, 27.977109 ], [ 85.186874, 27.978091 ], [ 85.188077, 27.978587 ], [ 85.188808, 27.978679 ], [ 85.190565, 27.978394 ], [ 85.191934, 27.977378 ], [ 85.192343, 27.976748 ], [ 85.192633, 27.975519 ], [ 85.192452, 27.973937 ], [ 85.191787, 27.972865 ], [ 85.19085, 27.972033 ], [ 85.189495, 27.971522 ], [ 85.188428, 27.971352 ], [ 85.188398, 27.970486 ], [ 85.187909, 27.96958 ], [ 85.186888, 27.968501 ], [ 85.18564, 27.9675 ], [ 85.185075, 27.967179 ], [ 85.182572, 27.966497 ], [ 85.181437, 27.965947 ], [ 85.180187, 27.965081 ], [ 85.178656, 27.963405 ], [ 85.177836, 27.962774 ], [ 85.174922, 27.961626 ], [ 85.174211, 27.960939 ], [ 85.172486, 27.958696 ], [ 85.172132, 27.957768 ], [ 85.171218, 27.957092 ], [ 85.170583, 27.95621 ], [ 85.169277, 27.955205 ], [ 85.167461, 27.954348 ], [ 85.166707, 27.954156 ], [ 85.165964, 27.953038 ], [ 85.166143, 27.952284 ], [ 85.166361, 27.948145 ], [ 85.165722, 27.946628 ], [ 85.164716, 27.945301 ], [ 85.16455, 27.944375 ], [ 85.163684, 27.942076 ], [ 85.162914, 27.940637 ], [ 85.162328, 27.938752 ], [ 85.161116, 27.937483 ], [ 85.159827, 27.936578 ], [ 85.159399, 27.934761 ], [ 85.159011, 27.933854 ], [ 85.156914, 27.931021 ], [ 85.156838, 27.930301 ], [ 85.156454, 27.929668 ], [ 85.155311, 27.928899 ], [ 85.15336, 27.928503 ], [ 85.154115, 27.927049 ], [ 85.154238, 27.926524 ], [ 85.154203, 27.925845 ], [ 85.153892, 27.92498 ], [ 85.153849, 27.923176 ], [ 85.153402, 27.921431 ], [ 85.152057, 27.920255 ], [ 85.151156, 27.919901 ], [ 85.150144, 27.919133 ], [ 85.148954, 27.918805 ], [ 85.148127, 27.918177 ], [ 85.144746, 27.916837 ], [ 85.141219, 27.914746 ], [ 85.139668, 27.913647 ], [ 85.140157, 27.912472 ], [ 85.142949, 27.909941 ], [ 85.144292, 27.90573 ], [ 85.143481, 27.901582 ], [ 85.141199, 27.899471 ], [ 85.140585, 27.898559 ], [ 85.140433, 27.896679 ], [ 85.141364, 27.894587 ], [ 85.141436, 27.893406 ], [ 85.141104, 27.892155 ], [ 85.140628, 27.891279 ], [ 85.140488, 27.88925 ], [ 85.140277, 27.888434 ], [ 85.139844, 27.887788 ], [ 85.135532, 27.884419 ], [ 85.133794, 27.882532 ], [ 85.13191, 27.880911 ], [ 85.130405, 27.87783 ], [ 85.13014, 27.875318 ], [ 85.128612, 27.8734 ], [ 85.123984, 27.870763 ], [ 85.120896, 27.869437 ], [ 85.119798, 27.868602 ], [ 85.117875, 27.867794 ], [ 85.11743, 27.867463 ], [ 85.114572, 27.86252 ], [ 85.114379, 27.861622 ], [ 85.113715, 27.860247 ], [ 85.114753, 27.85941 ], [ 85.115364, 27.857661 ], [ 85.115292, 27.857131 ], [ 85.114935, 27.856497 ], [ 85.113807, 27.855708 ], [ 85.113109, 27.85549 ], [ 85.112256, 27.855454 ], [ 85.110344, 27.856177 ], [ 85.107163, 27.856504 ], [ 85.102237, 27.855836 ], [ 85.09951, 27.856137 ], [ 85.094063, 27.857476 ], [ 85.092775, 27.856764 ], [ 85.091379, 27.854861 ], [ 85.089611, 27.853377 ], [ 85.088015, 27.852455 ], [ 85.08723, 27.852269 ], [ 85.08551, 27.852247 ], [ 85.083082, 27.853521 ], [ 85.081437, 27.853068 ], [ 85.08064, 27.852579 ], [ 85.078872, 27.850882 ], [ 85.076684, 27.849974 ], [ 85.075393, 27.849967 ], [ 85.073489, 27.850355 ], [ 85.068374, 27.851967 ], [ 85.062358, 27.854346 ], [ 85.060106, 27.855578 ], [ 85.059534, 27.855273 ], [ 85.058594, 27.854141 ], [ 85.056212, 27.851956 ], [ 85.052669, 27.850852 ], [ 85.050905, 27.850568 ], [ 85.047181, 27.849375 ], [ 85.044011, 27.849288 ], [ 85.043261, 27.849396 ], [ 85.041621, 27.850385 ], [ 85.041026, 27.851204 ], [ 85.039869, 27.850944 ], [ 85.038672, 27.851086 ], [ 85.037465, 27.851487 ], [ 85.034592, 27.851345 ], [ 85.034383, 27.84992 ], [ 85.034166, 27.849422 ], [ 85.032299, 27.847505 ], [ 85.02395, 27.842903 ], [ 85.02496, 27.842022 ], [ 85.025392, 27.841262 ], [ 85.025777, 27.838744 ], [ 85.025836, 27.834251 ], [ 85.02542, 27.832645 ], [ 85.024228, 27.830609 ], [ 85.024037, 27.829304 ], [ 85.023721, 27.828389 ], [ 85.021568, 27.825186 ], [ 85.02077, 27.822092 ], [ 85.020629, 27.820975 ], [ 85.019587, 27.81857 ], [ 85.018593, 27.817485 ], [ 85.017707, 27.816805 ], [ 85.016789, 27.814544 ], [ 85.015695, 27.813041 ], [ 85.015481, 27.812211 ], [ 85.016872, 27.812046 ], [ 85.018064, 27.811024 ], [ 85.018306, 27.810132 ], [ 85.018025, 27.809 ], [ 85.017151, 27.808069 ], [ 85.016996, 27.807432 ], [ 85.016233, 27.806184 ], [ 85.015641, 27.805677 ], [ 85.014285, 27.804928 ], [ 85.012284, 27.804235 ], [ 85.010088, 27.803232 ], [ 85.006902, 27.802398 ], [ 85.004396, 27.79989 ], [ 85.001402, 27.798727 ], [ 85.000652, 27.798709 ], [ 84.998203, 27.799274 ], [ 84.994734, 27.801023 ], [ 84.992405, 27.800408 ], [ 84.990303, 27.800729 ], [ 84.989611, 27.80107 ], [ 84.987734, 27.802781 ], [ 84.985506, 27.802054 ], [ 84.984712, 27.801354 ], [ 84.982541, 27.800134 ], [ 84.980938, 27.800017 ], [ 84.978005, 27.798897 ], [ 84.975652, 27.798762 ], [ 84.971344, 27.799982 ], [ 84.970662, 27.800396 ], [ 84.96961, 27.801633 ], [ 84.969183, 27.802959 ], [ 84.969199, 27.803821 ], [ 84.967563, 27.80542 ], [ 84.966661, 27.808257 ], [ 84.964999, 27.808376 ], [ 84.963409, 27.80936 ], [ 84.962519, 27.810371 ], [ 84.962284, 27.81139 ], [ 84.961128, 27.81311 ], [ 84.960706, 27.814297 ], [ 84.960391, 27.814685 ], [ 84.958691, 27.815548 ], [ 84.957754, 27.815342 ], [ 84.955179, 27.813808 ], [ 84.952967, 27.813028 ], [ 84.950949, 27.813221 ], [ 84.949571, 27.813865 ], [ 84.947663, 27.811195 ], [ 84.946768, 27.810463 ], [ 84.945605, 27.809981 ], [ 84.944967, 27.808038 ], [ 84.943511, 27.806128 ], [ 84.94248, 27.804469 ], [ 84.941097, 27.802954 ], [ 84.940228, 27.802564 ], [ 84.938883, 27.802408 ], [ 84.937004, 27.802672 ], [ 84.928886, 27.797107 ], [ 84.925894, 27.795811 ], [ 84.924584, 27.795433 ], [ 84.92294, 27.79524 ], [ 84.922183, 27.795345 ], [ 84.919136, 27.796397 ], [ 84.916883, 27.798192 ], [ 84.915427, 27.798824 ], [ 84.913043, 27.800383 ], [ 84.912669, 27.800779 ], [ 84.911712, 27.802486 ], [ 84.908756, 27.801551 ], [ 84.90669, 27.80156 ], [ 84.90578, 27.801847 ], [ 84.904762, 27.802926 ], [ 84.904487, 27.803922 ], [ 84.904639, 27.804873 ], [ 84.904348, 27.805071 ], [ 84.902479, 27.8042 ], [ 84.899752, 27.80393 ], [ 84.893021, 27.805873 ], [ 84.891854, 27.805857 ], [ 84.890605, 27.806129 ], [ 84.889346, 27.806874 ], [ 84.888226, 27.807214 ], [ 84.887652, 27.807172 ], [ 84.886077, 27.806202 ], [ 84.884985, 27.80595 ], [ 84.884201, 27.805996 ], [ 84.88182, 27.80657 ], [ 84.880977, 27.807103 ], [ 84.879038, 27.806372 ], [ 84.875605, 27.806042 ], [ 84.875167, 27.80584 ], [ 84.875751, 27.804916 ], [ 84.875648, 27.803669 ], [ 84.874038, 27.801797 ], [ 84.87219, 27.800629 ], [ 84.870643, 27.799969 ], [ 84.869187, 27.799587 ], [ 84.867704, 27.799587 ], [ 84.865331, 27.799241 ], [ 84.863142, 27.799907 ], [ 84.862461, 27.800318 ], [ 84.860397, 27.802968 ], [ 84.859516, 27.804427 ], [ 84.858898, 27.804809 ], [ 84.857926, 27.805114 ], [ 84.855838, 27.80525 ], [ 84.852634, 27.806068 ], [ 84.851224, 27.80627 ], [ 84.850439, 27.803923 ], [ 84.849531, 27.802952 ], [ 84.847898, 27.801764 ], [ 84.844604, 27.80008 ], [ 84.84286, 27.799699 ], [ 84.839453, 27.799539 ], [ 84.838085, 27.79999 ], [ 84.837573, 27.800322 ], [ 84.835226, 27.803334 ], [ 84.833934, 27.801733 ], [ 84.833327, 27.801307 ], [ 84.83239, 27.801106 ], [ 84.831287, 27.801399 ], [ 84.829397, 27.802743 ], [ 84.828823, 27.803696 ], [ 84.828965, 27.80477 ], [ 84.83002, 27.806412 ], [ 84.826296, 27.807838 ], [ 84.82554, 27.808413 ], [ 84.82505, 27.80745 ], [ 84.823366, 27.805753 ], [ 84.822715, 27.805317 ], [ 84.818551, 27.80471 ], [ 84.81738, 27.804874 ], [ 84.816745, 27.805303 ], [ 84.815042, 27.807033 ], [ 84.814259, 27.808886 ], [ 84.813286, 27.810389 ], [ 84.811877, 27.81169 ], [ 84.80775, 27.814368 ], [ 84.804532, 27.812525 ], [ 84.802693, 27.812601 ], [ 84.799567, 27.812147 ], [ 84.79633, 27.810984 ], [ 84.791502, 27.810008 ], [ 84.790368, 27.810169 ], [ 84.787348, 27.811956 ], [ 84.785935, 27.811434 ], [ 84.783046, 27.811149 ], [ 84.780931, 27.810121 ], [ 84.779025, 27.808184 ], [ 84.777044, 27.806643 ], [ 84.776255, 27.806409 ], [ 84.772984, 27.806135 ], [ 84.769576, 27.807169 ], [ 84.767127, 27.809357 ], [ 84.766773, 27.809975 ], [ 84.766035, 27.812305 ], [ 84.766293, 27.814341 ], [ 84.765574, 27.815129 ], [ 84.763726, 27.815651 ], [ 84.762477, 27.815304 ], [ 84.761317, 27.813782 ], [ 84.759385, 27.810967 ], [ 84.758831, 27.808276 ], [ 84.7566, 27.805473 ], [ 84.754618, 27.80356 ], [ 84.751048, 27.801598 ], [ 84.7513, 27.801022 ], [ 84.75133, 27.800328 ], [ 84.751064, 27.799676 ], [ 84.750541, 27.799161 ], [ 84.749839, 27.79886 ], [ 84.744355, 27.797623 ], [ 84.743355, 27.797805 ], [ 84.741889, 27.798769 ], [ 84.739707, 27.797733 ], [ 84.739311, 27.797121 ], [ 84.736886, 27.795117 ], [ 84.733931, 27.793674 ], [ 84.733224, 27.793469 ], [ 84.729954, 27.793347 ], [ 84.729195, 27.793449 ], [ 84.728533, 27.793795 ], [ 84.725853, 27.796329 ], [ 84.724658, 27.797877 ], [ 84.724116, 27.798159 ], [ 84.720156, 27.799275 ], [ 84.718803, 27.800424 ], [ 84.71445, 27.797996 ], [ 84.709873, 27.79785 ], [ 84.709163, 27.798159 ], [ 84.70611, 27.800242 ], [ 84.704494, 27.802757 ], [ 84.703368, 27.803311 ], [ 84.701911, 27.804464 ], [ 84.697274, 27.804771 ], [ 84.696793, 27.804187 ], [ 84.695906, 27.803769 ], [ 84.693629, 27.803966 ], [ 84.692777, 27.804381 ], [ 84.69224, 27.8051 ], [ 84.692122, 27.805785 ], [ 84.69233, 27.806889 ], [ 84.691057, 27.806846 ], [ 84.6885, 27.807507 ], [ 84.685768, 27.807713 ], [ 84.683022, 27.808224 ], [ 84.678213, 27.811605 ], [ 84.676721, 27.8124 ], [ 84.675066, 27.813536 ], [ 84.672157, 27.814408 ], [ 84.67103, 27.814556 ], [ 84.668988, 27.813679 ], [ 84.667989, 27.813731 ], [ 84.667286, 27.814078 ], [ 84.666645, 27.814975 ], [ 84.666597, 27.816129 ], [ 84.665161, 27.816929 ], [ 84.664843, 27.817376 ], [ 84.664344, 27.818698 ], [ 84.664244, 27.819219 ], [ 84.664383, 27.82098 ], [ 84.664736, 27.821935 ], [ 84.664665, 27.822088 ], [ 84.663902, 27.822243 ], [ 84.663145, 27.822763 ], [ 84.662507, 27.823591 ], [ 84.66236, 27.824344 ], [ 84.659921, 27.826166 ], [ 84.657993, 27.828945 ], [ 84.657934, 27.829662 ], [ 84.658279, 27.831676 ], [ 84.659048, 27.833499 ], [ 84.6601, 27.835104 ], [ 84.660939, 27.836927 ], [ 84.661121, 27.84002 ], [ 84.659907, 27.841235 ], [ 84.659616, 27.841752 ], [ 84.659054, 27.844209 ], [ 84.658917, 27.846202 ], [ 84.658524, 27.847832 ], [ 84.657736, 27.848872 ], [ 84.65628, 27.849773 ], [ 84.653316, 27.850242 ], [ 84.649116, 27.85039 ], [ 84.646507, 27.851186 ], [ 84.645098, 27.85215 ], [ 84.644443, 27.853073 ], [ 84.644088, 27.855518 ], [ 84.644418, 27.856299 ], [ 84.646127, 27.858164 ], [ 84.642029, 27.857528 ], [ 84.640207, 27.857491 ], [ 84.634902, 27.857937 ], [ 84.63386, 27.858303 ], [ 84.631277, 27.860832 ], [ 84.630836, 27.86155 ], [ 84.630466, 27.863385 ], [ 84.630645, 27.867402 ], [ 84.62735, 27.868754 ], [ 84.624773, 27.870993 ], [ 84.623582, 27.873312 ], [ 84.622559, 27.874772 ], [ 84.621899, 27.875181 ], [ 84.619659, 27.875911 ], [ 84.618843, 27.876547 ], [ 84.617667, 27.875617 ], [ 84.617107, 27.87267 ], [ 84.616892, 27.872186 ], [ 84.615063, 27.870749 ], [ 84.611742, 27.869519 ], [ 84.607486, 27.869119 ], [ 84.604566, 27.869738 ], [ 84.603046, 27.870602 ], [ 84.602474, 27.871273 ], [ 84.601741, 27.873217 ], [ 84.601322, 27.873562 ], [ 84.600316, 27.873987 ], [ 84.598528, 27.873943 ], [ 84.596709, 27.87368 ], [ 84.59433, 27.874236 ], [ 84.592324, 27.875484 ], [ 84.591002, 27.876873 ], [ 84.590221, 27.877319 ], [ 84.588504, 27.876451 ], [ 84.585951, 27.874436 ], [ 84.5822, 27.872166 ], [ 84.579449, 27.870169 ], [ 84.579223, 27.869784 ], [ 84.580038, 27.866158 ], [ 84.579612, 27.863685 ], [ 84.579153, 27.862935 ], [ 84.576488, 27.860767 ], [ 84.572743, 27.858702 ], [ 84.568134, 27.856632 ], [ 84.561054, 27.855885 ], [ 84.560739, 27.855609 ], [ 84.559711, 27.853654 ], [ 84.559899, 27.850941 ], [ 84.560788, 27.848202 ], [ 84.560855, 27.847499 ], [ 84.560386, 27.846535 ], [ 84.559393, 27.845966 ], [ 84.558801, 27.845898 ], [ 84.558025, 27.846048 ], [ 84.5562, 27.847171 ], [ 84.55503, 27.849231 ], [ 84.554483, 27.850685 ], [ 84.554421, 27.853852 ], [ 84.555188, 27.857747 ] ], [ [ 84.819504, 27.811144 ], [ 84.819501, 27.811003 ], [ 84.819565, 27.810854 ], [ 84.819504, 27.811144 ] ], [ [ 84.825656, 27.815363 ], [ 84.828932, 27.815668 ], [ 84.826715, 27.816135 ], [ 84.825804, 27.815732 ], [ 84.825656, 27.815363 ] ] ] } }
]
}
