{
"type": "FeatureCollection",
"name": "bridges",
"crs": { "type": "name", "properties": { "name": "urn:ogc:def:crs:OGC:1.3:CRS84" } },
"xy_coordinate_resolution": 1e-06,
"features": [
{ "type": "Feature", "properties": { "name": "Miteri Bridge, Rasuwagadhi", "status": "Washed out", "location": "Rasuwagadhi", "length_m": null, "adm2_name": "Rasuwa", "adm3_name": "Gosaikunda" }, "geometry": { "type": "Point", "coordinates": [ 85.378097, 28.278944 ] } },
{ "type": "Feature", "properties": { "name": "Timure Bridge 1", "status": "Washed out", "location": "Timure", "length_m": null, "adm2_name": "Rasuwa", "adm3_name": "Gosaikunda" }, "geometry": { "type": "Point", "coordinates": [ 85.377697, 28.271275 ] } },
{ "type": "Feature", "properties": { "name": "Timure Bridge 2", "status": "Washed out", "location": "Timure", "length_m": null, "adm2_name": "Rasuwa", "adm3_name": "Gosaikunda" }, "geometry": { "type": "Point", "coordinates": [ 85.358278, 28.239978 ] } },
{ "type": "Feature", "properties": { "name": "Ghatte Khola", "status": "Washed out", "location": "", "length_m": null, "adm2_name": "Rasuwa", "adm3_name": "Gosaikunda" }, "geometry": { "type": "Point", "coordinates": [ 85.361803, 28.226711 ] } },
{ "type": "Feature", "properties": { "name": "Bhotekoshi Bridge at Chilime", "status": "Washed out", "location": "Chilime", "length_m": null, "adm2_name": "Rasuwa", "adm3_name": "Gosaikunda" }, "geometry": { "type": "Point", "coordinates": [ 85.343281, 28.182803 ] } },
{ "type": "Feature", "properties": { "name": "Chilime Bridge, Chilime Khola", "status": "Washed out", "location": "Chilime", "length_m": null, "adm2_name": "Rasuwa", "adm3_name": "Aamachhodingmo" }, "geometry": { "type": "Point", "coordinates": [ 85.342219, 28.181653 ] } },
{ "type": "Feature", "properties": { "name": "Hydropower Bailey Bridge at Bhotekoshi, Syaphrubeshi", "status": "Washed out", "location": "Syafrubesi", "length_m": null, "adm2_name": "Rasuwa", "adm3_name": "Gosaikunda" }, "geometry": { "type": "Point", "coordinates": [ 85.339928, 28.164386 ] } },
{ "type": "Feature", "properties": { "name": "Syafrubesi Bridge", "status": "Washed out", "location": "Syafrubesi", "length_m": null, "adm2_name": "Rasuwa", "adm3_name": "Gosaikunda" }, "geometry": { "type": "Point", "coordinates": [ 85.332492, 28.157478 ] } },
{ "type": "Feature", "properties": { "name": "Sano bharkhu", "status": "Intact", "location": "63+200", "length_m": 20.0, "adm2_name": "Rasuwa", "adm3_name": "Gosaikunda" }, "geometry": { "type": "Point", "coordinates": [ 85.318714, 28.145564 ] } },
{ "type": "Feature", "properties": { "name": "Trisuli Khola Bridge", "status": "Intact", "location": "60+020", "length_m": 20.0, "adm2_name": "Rasuwa", "adm3_name": "Gosaikunda" }, "geometry": { "type": "Point", "coordinates": [ 85.299472, 28.127264 ] } },
{ "type": "Feature", "properties": { "name": "Trisuli 216 Audit 1 Bailey Bridge", "status": "Washed out", "location": "Audit 1, Trisuli 216", "length_m": null, "adm2_name": "Rasuwa", "adm3_name": "Aamachhodingmo" }, "geometry": { "type": "Point", "coordinates": [ 85.288422, 28.120283 ] } },
{ "type": "Feature", "properties": { "name": "Haku1 Bailey Bridge at Hydropower, Trishuli", "status": "Washed out", "location": "", "length_m": null, "adm2_name": "Rasuwa", "adm3_name": "Gosaikunda" }, "geometry": { "type": "Point", "coordinates": [ 85.281031, 28.112953 ] } },
{ "type": "Feature", "properties": { "name": "Haku khola", "status": "Washed out", "location": "57+000", "length_m": 35.0, "adm2_name": "Rasuwa", "adm3_name": "Gosaikunda" }, "geometry": { "type": "Point", "coordinates": [ 85.278964, 28.110156 ] } },
{ "type": "Feature", "properties": { "name": "Bimali Khola", "status": "Washed out", "location": "56+800", "length_m": 40.0, "adm2_name": "Rasuwa", "adm3_name": "Gosaikunda" }, "geometry": { "type": "Point", "coordinates": [ 85.277147, 28.108542 ] } },
{ "type": "Feature", "properties": { "name": "Haku2 Bailey Bridge at Hydropower, Trishuli", "status": "Washed out", "location": "", "length_m": null, "adm2_name": "Rasuwa", "adm3_name": "Aamachhodingmo" }, "geometry": { "type": "Point", "coordinates": [ 85.275139, 28.108367 ] } },
{ "type": "Feature", "properties": { "name": "Thade Khola", "status": "Intact", "location": "52+320", "length_m": 35.0, "adm2_name": "Rasuwa", "adm3_name": "Gosaikunda" }, "geometry": { "type": "Point", "coordinates": [ 85.251936, 28.091556 ] } },
{ "type": "Feature", "properties": { "name": "Thado Khola (Crossing 0+750", "status": "Intact", "location": "50+300", "length_m": 10.0, "adm2_name": "Rasuwa", "adm3_name": "Kalika" }, "geometry": { "type": "Point", "coordinates": [ 85.225556, 28.082778 ] } },
{ "type": "Feature", "properties": { "name": "Crossing 0+700", "status": "Washed out", "location": "50+260", "length_m": 10.0, "adm2_name": "Rasuwa", "adm3_name": "Kalika" }, "geometry": { "type": "Point", "coordinates": [ 85.222594, 28.081897 ] } },
{ "type": "Feature", "properties": { "name": "Upper Trishuli Hydrower Bailey Bridge", "status": "Washed out", "location": "", "length_m": null, "adm2_name": "Rasuwa", "adm3_name": "Uttargaya" }, "geometry": { "type": "Point", "coordinates": [ 85.212844, 28.075978 ] } },
{ "type": "Feature", "properties": { "name": "Mailung Bailey Bridge at Mailung Bazaar", "status": "Washed out", "location": "", "length_m": null, "adm2_name": "Rasuwa", "adm3_name": "Uttargaya" }, "geometry": { "type": "Point", "coordinates": [ 85.207533, 28.071894 ] } },
{ "type": "Feature", "properties": { "name": "Trishuli Bridge Mailung Chipleti", "status": "Washed out", "location": "47+200", "length_m": 60.0, "adm2_name": "Rasuwa", "adm3_name": "Uttargaya" }, "geometry": { "type": "Point", "coordinates": [ 85.205833, 28.065278 ] } },
{ "type": "Feature", "properties": { "name": "Trishuli 3A Dam-3", "status": "Washed out", "location": "47+040", "length_m": 15.0, "adm2_name": "Rasuwa", "adm3_name": "Uttargaya" }, "geometry": { "type": "Point", "coordinates": [ 85.206325, 28.062578 ] } },
{ "type": "Feature", "properties": { "name": "Trishuli 3A Dam-2", "status": "Washed out", "location": "46+990", "length_m": 30.0, "adm2_name": "Rasuwa", "adm3_name": "Uttargaya" }, "geometry": { "type": "Point", "coordinates": [ 85.206686, 28.062053 ] } },
{ "type": "Feature", "properties": { "name": "Bahubali Jharana Pul", "status": "Washed out", "location": "43+850", "length_m": 25.0, "adm2_name": "Rasuwa", "adm3_name": "Uttargaya" }, "geometry": { "type": "Point", "coordinates": [ 85.192778, 28.038056 ] } },
{ "type": "Feature", "properties": { "name": "Sukaure Khola", "status": "Intact", "location": "40+210", "length_m": 20.0, "adm2_name": "Nuwakot", "adm3_name": "Kispang" }, "geometry": { "type": "Point", "coordinates": [ 85.179778, 28.014339 ] } },
{ "type": "Feature", "properties": { "name": "Naya Pul Trishuli, Khalte CH 37+810", "status": "Washed out", "location": "Khalte CH 37+810", "length_m": 50.0, "adm2_name": "Rasuwa", "adm3_name": "Uttargaya" }, "geometry": { "type": "Point", "coordinates": [ 85.184889, 27.995342 ] } },
{ "type": "Feature", "properties": { "name": "Betrawati Old Bridge", "status": "Washed out", "location": "Betrawati", "length_m": 70.0, "adm2_name": "Rasuwa", "adm3_name": "Uttargaya" }, "geometry": { "type": "Point", "coordinates": [ 85.185811, 27.974339 ] } },
{ "type": "Feature", "properties": { "name": "Betrawati New Bridge", "status": "Washed out", "location": "Betrawati (35+180)", "length_m": 70.0, "adm2_name": "Rasuwa", "adm3_name": "Uttargaya" }, "geometry": { "type": "Point", "coordinates": [ 85.185811, 27.974339 ] } },
{ "type": "Feature", "properties": { "name": "Trisuli River Bridge Tupche", "status": "Washed out", "location": "Tupche", "length_m": 100.0, "adm2_name": "Nuwakot", "adm3_name": "Bidur" }, "geometry": { "type": "Point", "coordinates": [ 85.172811, 27.963778 ] } },
{ "type": "Feature", "properties": { "name": "Dhobi Khola", "status": "Intact", "location": "27+220", "length_m": 15.0, "adm2_name": "Nuwakot", "adm3_name": "Bidur" }, "geometry": { "type": "Point", "coordinates": [ 85.148611, 27.920278 ] } },
{ "type": "Feature", "properties": { "name": "Gundre Khola", "status": "Intact", "location": "27+980", "length_m": 15.0, "adm2_name": "Nuwakot", "adm3_name": "Bidur" }, "geometry": { "type": "Point", "coordinates": [ 85.153611, 27.923333 ] } },
{ "type": "Feature", "properties": { "name": "Bire Khola", "status": "Intact", "location": "27+840", "length_m": 20.0, "adm2_name": "Nuwakot", "adm3_name": "Bidur" }, "geometry": { "type": "Point", "coordinates": [ 85.153889, 27.924444 ] } },
{ "type": "Feature", "properties": { "name": "Gerkhu khola", "status": "Intact", "location": "29+050", "length_m": 10.0, "adm2_name": "Nuwakot", "adm3_name": "Bidur" }, "geometry": { "type": "Point", "coordinates": [ 85.154722, 27.930556 ] } },
{ "type": "Feature", "properties": { "name": "Trisuli River Bridge ,Trisuli Bazzar(Old)", "status": "Washed out", "location": "Trisuli Bazzar", "length_m": 60.0, "adm2_name": "Nuwakot", "adm3_name": "Bidur" }, "geometry": { "type": "Point", "coordinates": [ 85.14945, 27.921828 ] } },
{ "type": "Feature", "properties": { "name": "Trisuli River Bridge ,Trisuli Bazzar(New)", "status": "Washed out", "location": "Trisuli Bazzar", "length_m": 60.0, "adm2_name": "Nuwakot", "adm3_name": "Bidur" }, "geometry": { "type": "Point", "coordinates": [ 85.147964, 27.921236 ] } },
{ "type": "Feature", "properties": { "name": "Trisuli River Bridge ,Simchaur", "status": "Washed out", "location": "Simchaur", "length_m": 100.0, "adm2_name": "Nuwakot", "adm3_name": "Bidur" }, "geometry": { "type": "Point", "coordinates": [ 85.138503, 27.909486 ] } },
{ "type": "Feature", "properties": { "name": "Suspension Bridge at Devighat near Jalshrot tatha Sinchai Division", "status": "Washed out", "location": "Devighat", "length_m": null, "adm2_name": "Nuwakot", "adm3_name": "Bidur" }, "geometry": { "type": "Point", "coordinates": [ 85.1365, 27.892342 ] } },
{ "type": "Feature", "properties": { "name": "Trisuli River Bridge, Near Devighat, Midhill Highway", "status": "Washed out", "location": "Near DeviGhat", "length_m": null, "adm2_name": "Nuwakot", "adm3_name": "Bidur" }, "geometry": { "type": "Point", "coordinates": [ 85.116225, 27.870339 ] } },
{ "type": "Feature", "properties": { "name": "Tandi Khola Bridge, Devighat (Old)", "status": "Washed out", "location": "Devighat", "length_m": 55.0, "adm2_name": "Nuwakot", "adm3_name": "Bidur" }, "geometry": { "type": "Point", "coordinates": [ 85.109075, 27.858575 ] } },
{ "type": "Feature", "properties": { "name": "Tandi Khola Bridge, Devighat (New)", "status": "Washed out", "location": "Devighat(CH 16+570)", "length_m": 55.0, "adm2_name": "Nuwakot", "adm3_name": "Bidur" }, "geometry": { "type": "Point", "coordinates": [ 85.109075, 27.858575 ] } },
{ "type": "Feature", "properties": { "name": "Trisuli River Bridge,Khadgabhanjyang Srikhali Sadak", "status": "Washed out", "location": "Srikhali", "length_m": 180.0, "adm2_name": "Nuwakot", "adm3_name": "Bidur" }, "geometry": { "type": "Point", "coordinates": [ 85.098708, 27.859317 ] } },
{ "type": "Feature", "properties": { "name": "Thulo khola", "status": "Damaged", "location": "13+260", "length_m": 20.0, "adm2_name": "Nuwakot", "adm3_name": "Belkotgadhi" }, "geometry": { "type": "Point", "coordinates": [ 85.081064, 27.854567 ] } },
{ "type": "Feature", "properties": { "name": "Trishuli River Bridge, Buddhasinghghat", "status": "Washed out", "location": "Buddhasinghghat", "length_m": 140.0, "adm2_name": "Nuwakot", "adm3_name": "Belkotgadhi" }, "geometry": { "type": "Point", "coordinates": [ 85.061936, 27.859481 ] } },
{ "type": "Feature", "properties": { "name": "Trishuli River Bridge, Ratmate", "status": "Washed out", "location": "Ratmate", "length_m": 150.0, "adm2_name": "Nuwakot", "adm3_name": "Tarakeshwor" }, "geometry": { "type": "Point", "coordinates": [ 85.041189, 27.856097 ] } },
{ "type": "Feature", "properties": { "name": "Jhangar Khola", "status": "Intact", "location": "5+760", "length_m": 15.0, "adm2_name": "Nuwakot", "adm3_name": "Belkotgadhi" }, "geometry": { "type": "Point", "coordinates": [ 85.024433, 27.834639 ] } },
{ "type": "Feature", "properties": { "name": "Trishuli River Bridge, Keurini, Fosretar", "status": "Washed out", "location": "Keurini, Fosretar", "length_m": null, "adm2_name": "Dhading", "adm3_name": "Galchhi" }, "geometry": { "type": "Point", "coordinates": [ 85.022333, 27.832525 ] } },
{ "type": "Feature", "properties": { "name": "Kolpu Khola Bridge (Old)", "status": "Damaged", "location": "", "length_m": 40.0, "adm2_name": "Nuwakot", "adm3_name": "Belkotgadhi" }, "geometry": { "type": "Point", "coordinates": [ 85.016211, 27.810111 ] } },
{ "type": "Feature", "properties": { "name": "Kolpu Khola Bridge (New)", "status": "Damaged", "location": "2+520", "length_m": 40.0, "adm2_name": "Nuwakot", "adm3_name": "Belkotgadhi" }, "geometry": { "type": "Point", "coordinates": [ 85.016211, 27.810111 ] } },
{ "type": "Feature", "properties": { "name": "Trishuli River Bridge, BhimDhunga Lami Danda Sadak", "status": "Intact", "location": "Near Galchhi", "length_m": 140.0, "adm2_name": "Dhading", "adm3_name": "Galchhi" }, "geometry": { "type": "Point", "coordinates": [ 85.002772, 27.802689 ] } },
{ "type": "Feature", "properties": { "name": "Mahesh khola", "status": "Intact", "location": "0+520", "length_m": 41.0, "adm2_name": "Dhading", "adm3_name": "Galchhi" }, "geometry": { "type": "Point", "coordinates": [ 85.000833, 27.800278 ] } },
{ "type": "Feature", "properties": { "name": "Trishuli River Bridge, Baireni Syaltar Sadak", "status": "Washed out", "location": "Below Galchhi", "length_m": 150.0, "adm2_name": "Dhading", "adm3_name": "Galchhi" }, "geometry": { "type": "Point", "coordinates": [ 84.990489, 27.804283 ] } },
{ "type": "Feature", "properties": { "name": "Trisuli River Bridge, Mastar Dhading", "status": "Damaged", "location": "Near Hamlet Resort", "length_m": 140.0, "adm2_name": "Dhading", "adm3_name": "Galchhi" }, "geometry": { "type": "Point", "coordinates": [ 84.965264, 27.811858 ] } },
{ "type": "Feature", "properties": { "name": "Trisuli River Bridge, JareBagaicha", "status": "Washed out", "location": "JareBagaicha", "length_m": 120.0, "adm2_name": "Dhading", "adm3_name": "Siddhalek" }, "geometry": { "type": "Point", "coordinates": [ 84.924281, 27.797928 ] } },
{ "type": "Feature", "properties": { "name": "Trisuli River Bridge, Ghatbesi", "status": "Washed out", "location": "Ghatbesi", "length_m": 200.0, "adm2_name": "Dhading", "adm3_name": "Siddhalek" }, "geometry": { "type": "Point", "coordinates": [ 84.901881, 27.806886 ] } },
{ "type": "Feature", "properties": { "name": "Trishuli River Bridge, Furke Khola", "status": "Washed out", "location": "Malelkhu", "length_m": 118.0, "adm2_name": "Dhading", "adm3_name": "Siddhalek" }, "geometry": { "type": "Point", "coordinates": [ 84.844075, 27.802544 ] } },
{ "type": "Feature", "properties": { "name": "Trishuli River Bridge, Benighat", "status": "Intact", "location": "Benighat", "length_m": null, "adm2_name": "Gorkha", "adm3_name": "Gandaki" }, "geometry": { "type": "Point", "coordinates": [ 84.777081, 27.810589 ] } },
{ "type": "Feature", "properties": { "name": "Trisuli River Bridge, Fisling Gorkha", "status": "Intact", "location": "Fishling", "length_m": 145.0, "adm2_name": "Gorkha", "adm3_name": "Gandaki" }, "geometry": { "type": "Point", "coordinates": [ 84.662064, 27.844628 ] } },
{ "type": "Feature", "properties": { "name": "Hydropower Bailey Bridge Trishuli, Chumlingtar", "status": "Intact", "location": "Chumlingtar", "length_m": null, "adm2_name": "Gorkha", "adm3_name": "Gandaki" }, "geometry": { "type": "Point", "coordinates": [ 84.640958, 27.860075 ] } }
]
}
