{
"type": "FeatureCollection",
"name": "facilities",
"crs": { "type": "name", "properties": { "name": "urn:ogc:def:crs:OGC:1.3:CRS84" } },
"xy_coordinate_resolution": 1e-06,
"features": [
{ "type": "Feature", "properties": { "name": "Rajmarga Samudayak Hospital", "amenity": "hospital", "healthcare": null, "kind": "Health" }, "geometry": { "type": "Point", "coordinates": [ 84.833475, 27.811115 ] } },
{ "type": "Feature", "properties": { "name": "Benighat Health Cllinic", "amenity": "clinic", "healthcare": null, "kind": "Health" }, "geometry": { "type": "Point", "coordinates": [ 84.780015, 27.810624 ] } },
{ "type": "Feature", "properties": { "name": null, "amenity": "pharmacy", "healthcare": null, "kind": "Health" }, "geometry": { "type": "Point", "coordinates": [ 84.827845, 27.813694 ] } },
{ "type": "Feature", "properties": { "name": "Bihani Pharmacy", "amenity": "pharmacy", "healthcare": null, "kind": "Health" }, "geometry": { "type": "Point", "coordinates": [ 84.704305, 27.805674 ] } },
{ "type": "Feature", "properties": { "name": null, "amenity": "hospital", "healthcare": null, "kind": "Health" }, "geometry": { "type": "Polygon", "coordinates": [ [ [ 84.879808, 27.80657 ], [ 84.879835, 27.806524 ], [ 84.879931, 27.806338 ], [ 84.87999, 27.806253 ], [ 84.880034, 27.80624 ], [ 84.880119, 27.806241 ], [ 84.880221, 27.806239 ], [ 84.880253, 27.806254 ], [ 84.880238, 27.806296 ], [ 84.88021, 27.806337 ], [ 84.880144, 27.806495 ], [ 84.880047, 27.806673 ], [ 84.879816, 27.806587 ], [ 84.879808, 27.80657 ] ] ] } },
{ "type": "Feature", "properties": { "name": "Shree Haku Besi Ni.Ma.V", "amenity": "school", "healthcare": null, "kind": "Education" }, "geometry": { "type": "Point", "coordinates": [ 85.279417, 28.114628 ] } },
{ "type": "Feature", "properties": { "name": "Gosaikunda English Reading School", "amenity": "school", "healthcare": null, "kind": "Education" }, "geometry": { "type": "Point", "coordinates": [ 85.338864, 28.164333 ] } },
{ "type": "Feature", "properties": { "name": null, "amenity": "school", "healthcare": null, "kind": "Education" }, "geometry": { "type": "Point", "coordinates": [ 85.169397, 27.964749 ] } },
{ "type": "Feature", "properties": { "name": "Shree Chetana Primary School", "amenity": "school", "healthcare": null, "kind": "Education" }, "geometry": { "type": "Point", "coordinates": [ 85.171365, 27.96187 ] } },
{ "type": "Feature", "properties": { "name": "Shree Chipleti Pra Vi", "amenity": "school", "healthcare": null, "kind": "Education" }, "geometry": { "type": "Point", "coordinates": [ 85.208176, 28.056387 ] } },
{ "type": "Feature", "properties": { "name": "Shree Simle Pra Vi", "amenity": "school", "healthcare": null, "kind": "Education" }, "geometry": { "type": "Point", "coordinates": [ 85.190789, 28.029756 ] } },
{ "type": "Feature", "properties": { "name": "Shree Sulakshyana Ma Vi", "amenity": "school", "healthcare": null, "kind": "Education" }, "geometry": { "type": "Point", "coordinates": [ 85.158467, 27.947585 ] } },
{ "type": "Feature", "properties": { "name": "Shri Shilingtar Pra V", "amenity": "school", "healthcare": null, "kind": "Education" }, "geometry": { "type": "Point", "coordinates": [ 84.591149, 27.881603 ] } },
{ "type": "Feature", "properties": { "name": "Shri Belinitar Pra Vi", "amenity": "school", "healthcare": null, "kind": "Education" }, "geometry": { "type": "Point", "coordinates": [ 84.944261, 27.814772 ] } },
{ "type": "Feature", "properties": { "name": "Shri Aadarsha Bahumukhi Campus", "amenity": "school", "healthcare": null, "kind": "Education" }, "geometry": { "type": "Point", "coordinates": [ 84.877341, 27.807084 ] } },
{ "type": "Feature", "properties": { "name": "Shri Adarsha Uchha Ma V", "amenity": "school", "healthcare": null, "kind": "Education" }, "geometry": { "type": "Point", "coordinates": [ 84.879326, 27.807585 ] } },
{ "type": "Feature", "properties": { "name": "Shree Neelkanta Higher Sec School", "amenity": "school", "healthcare": null, "kind": "Education" }, "geometry": { "type": "Point", "coordinates": [ 85.184074, 27.978568 ] } },
{ "type": "Feature", "properties": { "name": "Shri Mahalaxmi Pra.Vi.", "amenity": "school", "healthcare": null, "kind": "Education" }, "geometry": { "type": "Point", "coordinates": [ 85.13673, 27.886311 ] } },
{ "type": "Feature", "properties": { "name": "Shree Mandredhunga Pra V", "amenity": "school", "healthcare": null, "kind": "Education" }, "geometry": { "type": "Point", "coordinates": [ 85.129896, 27.886485 ] } },
{ "type": "Feature", "properties": { "name": "Shri Chandrodaya Ma Vi", "amenity": "school", "healthcare": null, "kind": "Education" }, "geometry": { "type": "Point", "coordinates": [ 84.781624, 27.812165 ] } },
{ "type": "Feature", "properties": { "name": null, "amenity": "school", "healthcare": null, "kind": "Education" }, "geometry": { "type": "Point", "coordinates": [ 85.145188, 27.917893 ] } },
{ "type": "Feature", "properties": { "name": "Shree Bakulahari Rastriya Adharbhut School, Lewatar", "amenity": "school", "healthcare": null, "kind": "Education" }, "geometry": { "type": "Point", "coordinates": [ 84.604423, 27.870321 ] } },
{ "type": "Feature", "properties": { "name": "Shri Janajagriti Primary School", "amenity": "school", "healthcare": null, "kind": "Education" }, "geometry": { "type": "Point", "coordinates": [ 84.640951, 27.862242 ] } },
{ "type": "Feature", "properties": { "name": "Kurin Boarding School", "amenity": "school", "healthcare": null, "kind": "Education" }, "geometry": { "type": "Point", "coordinates": [ 84.625157, 27.870644 ] } },
{ "type": "Feature", "properties": { "name": "Shri Rainas Pra V", "amenity": "school", "healthcare": null, "kind": "Education" }, "geometry": { "type": "Point", "coordinates": [ 84.633095, 27.871628 ] } },
{ "type": "Feature", "properties": { "name": "Shree Rastriya Aardharbhut School, Fishling", "amenity": "school", "healthcare": null, "kind": "Education" }, "geometry": { "type": "Point", "coordinates": [ 84.661484, 27.842489 ] } },
{ "type": "Feature", "properties": { "name": "Green Field Secondary English School, Muglin", "amenity": "school", "healthcare": null, "kind": "Education" }, "geometry": { "type": "Point", "coordinates": [ 84.56153, 27.857688 ] } },
{ "type": "Feature", "properties": { "name": "Nepali, English", "amenity": "school", "healthcare": null, "kind": "Education" }, "geometry": { "type": "Point", "coordinates": [ 84.739651, 27.801307 ] } },
{ "type": "Feature", "properties": { "name": "Shri Buddhi Bikash Pra V", "amenity": "school", "healthcare": null, "kind": "Education" }, "geometry": { "type": "Point", "coordinates": [ 84.748677, 27.803501 ] } },
{ "type": "Feature", "properties": { "name": "Shree Shankha Higher Secondary School", "amenity": "school", "healthcare": null, "kind": "Education" }, "geometry": { "type": "Point", "coordinates": [ 84.704894, 27.805525 ] } },
{ "type": "Feature", "properties": { "name": "Shree Mahadev Uchha Ma V", "amenity": "school", "healthcare": null, "kind": "Education" }, "geometry": { "type": "Point", "coordinates": [ 85.014091, 27.810527 ] } },
{ "type": "Feature", "properties": { "name": "Shree Pimaltar Uchcha Ma.Vi.", "amenity": "school", "healthcare": null, "kind": "Education" }, "geometry": { "type": "Point", "coordinates": [ 85.0193, 27.839041 ] } },
{ "type": "Feature", "properties": { "name": "Shri Seti Devi Pra Bi", "amenity": "school", "healthcare": null, "kind": "Education" }, "geometry": { "type": "Point", "coordinates": [ 85.087397, 27.862504 ] } },
{ "type": "Feature", "properties": { "name": "Shri Janasewa Lower Secondary School", "amenity": "school", "healthcare": null, "kind": "Education" }, "geometry": { "type": "Point", "coordinates": [ 85.089701, 27.853684 ] } },
{ "type": "Feature", "properties": { "name": "Shri Chandi Ni.Ma.Vi.", "amenity": "school", "healthcare": null, "kind": "Education" }, "geometry": { "type": "Point", "coordinates": [ 85.080635, 27.857647 ] } },
{ "type": "Feature", "properties": { "name": "Shri Sila Devi Ma. Vi", "amenity": "school", "healthcare": null, "kind": "Education" }, "geometry": { "type": "Point", "coordinates": [ 85.042318, 27.85146 ] } },
{ "type": "Feature", "properties": { "name": "Shri Ganeshman Singh Memorial Primary School", "amenity": "school", "healthcare": null, "kind": "Education" }, "geometry": { "type": "Point", "coordinates": [ 85.02767, 27.849136 ] } },
{ "type": "Feature", "properties": { "name": "Tribhuwan Trishuli Higher School", "amenity": "school", "healthcare": null, "kind": "Education" }, "geometry": { "type": "LineString", "coordinates": [ [ 85.149856, 27.924098 ], [ 85.149807, 27.923832 ], [ 85.149767, 27.923572 ], [ 85.149844, 27.923572 ], [ 85.149871, 27.92353 ], [ 85.149888, 27.923401 ], [ 85.150172, 27.923382 ], [ 85.150208, 27.923637 ], [ 85.150043, 27.923652 ], [ 85.150052, 27.923747 ], [ 85.150055, 27.923833 ], [ 85.14999, 27.923933 ], [ 85.150001, 27.924088 ], [ 85.149856, 27.924098 ] ] } },
{ "type": "Feature", "properties": { "name": "Gosaikunda English School", "amenity": null, "healthcare": null, "kind": "Education" }, "geometry": { "type": "LineString", "coordinates": [ [ 85.341252, 28.165287 ], [ 85.341361, 28.165348 ], [ 85.341397, 28.1653 ], [ 85.341288, 28.165238 ], [ 85.341252, 28.165287 ] ] } },
{ "type": "Feature", "properties": { "name": null, "amenity": null, "healthcare": null, "kind": "Education" }, "geometry": { "type": "LineString", "coordinates": [ [ 85.338733, 28.164282 ], [ 85.338814, 28.164323 ], [ 85.338833, 28.164295 ], [ 85.338751, 28.164254 ], [ 85.338733, 28.164282 ] ] } },
{ "type": "Feature", "properties": { "name": "Uttargaya Secondary School", "amenity": null, "healthcare": null, "kind": "Education" }, "geometry": { "type": "LineString", "coordinates": [ [ 85.180679, 27.967697 ], [ 85.18077, 27.967681 ], [ 85.180843, 27.967995 ], [ 85.180751, 27.968011 ], [ 85.180679, 27.967697 ] ] } },
{ "type": "Feature", "properties": { "name": "Trishuli Medical Institute", "amenity": null, "healthcare": null, "kind": "Education" }, "geometry": { "type": "Polygon", "coordinates": [ [ [ 85.139979, 27.912709 ], [ 85.14025, 27.912315 ], [ 85.140318, 27.912215 ], [ 85.140475, 27.912299 ], [ 85.140136, 27.912793 ], [ 85.139979, 27.912709 ] ], [ [ 85.140081, 27.912674 ], [ 85.140138, 27.912703 ], [ 85.140378, 27.912343 ], [ 85.140322, 27.912314 ], [ 85.140081, 27.912674 ] ] ] } },
{ "type": "Feature", "properties": { "name": "Tribhuwan Trisuli Multiple Campus", "amenity": "college", "healthcare": null, "kind": "Education" }, "geometry": { "type": "Polygon", "coordinates": [ [ [ 85.149072, 27.925083 ], [ 85.149655, 27.92503 ], [ 85.149717, 27.925751 ], [ 85.149241, 27.925822 ], [ 85.149072, 27.925083 ] ] ] } },
{ "type": "Feature", "properties": { "name": "Shri Sahid J P Jang Shah Sanskrit Ma V", "amenity": "school", "healthcare": null, "kind": "Education" }, "geometry": { "type": "Polygon", "coordinates": [ [ [ 85.112707, 27.863525 ], [ 85.113293, 27.863059 ], [ 85.114, 27.863662 ], [ 85.113348, 27.864136 ], [ 85.112707, 27.863525 ] ] ] } },
{ "type": "Feature", "properties": { "name": "Shri Rana Bhuwaneswari Uccha Madhyamik Prabidhik Bidyalaya", "amenity": "school", "healthcare": null, "kind": "Education" }, "geometry": { "type": "Polygon", "coordinates": [ [ [ 85.107258, 27.86213 ], [ 85.107309, 27.862067 ], [ 85.107433, 27.86185 ], [ 85.107762, 27.862036 ], [ 85.107867, 27.862169 ], [ 85.107958, 27.862125 ], [ 85.108029, 27.862221 ], [ 85.108055, 27.86233 ], [ 85.108088, 27.862447 ], [ 85.1081, 27.862689 ], [ 85.10813, 27.862797 ], [ 85.108073, 27.862847 ], [ 85.107603, 27.862631 ], [ 85.1074, 27.862537 ], [ 85.107411, 27.862517 ], [ 85.107537, 27.862276 ], [ 85.107258, 27.86213 ] ] ] } },
{ "type": "Feature", "properties": { "name": "Samudayik Bidhya Mandir", "amenity": null, "healthcare": null, "kind": "Education" }, "geometry": { "type": "Polygon", "coordinates": [ [ [ 85.107866, 27.864461 ], [ 85.107885, 27.864395 ], [ 85.10807, 27.864437 ], [ 85.108051, 27.864503 ], [ 85.107866, 27.864461 ] ] ] } },
{ "type": "Feature", "properties": { "name": null, "amenity": null, "healthcare": null, "kind": "Education" }, "geometry": { "type": "Polygon", "coordinates": [ [ [ 85.338995, 28.164958 ], [ 85.339022, 28.164859 ], [ 85.339432, 28.164944 ], [ 85.339406, 28.165043 ], [ 85.338995, 28.164958 ] ] ] } },
{ "type": "Feature", "properties": { "name": "Samudayik Bidhya Mandir", "amenity": null, "healthcare": null, "kind": "Education" }, "geometry": { "type": "Polygon", "coordinates": [ [ [ 85.107658, 27.864624 ], [ 85.107668, 27.864563 ], [ 85.107752, 27.864574 ], [ 85.107741, 27.864636 ], [ 85.107658, 27.864624 ] ] ] } },
{ "type": "Feature", "properties": { "name": "Marsyangdi Shikshya Sadan English Boarding School", "amenity": "school", "healthcare": null, "kind": "Education" }, "geometry": { "type": "Polygon", "coordinates": [ [ [ 84.559305, 27.856473 ], [ 84.55937, 27.856442 ], [ 84.559466, 27.856602 ], [ 84.559401, 27.856632 ], [ 84.559305, 27.856473 ] ] ] } },
{ "type": "Feature", "properties": { "name": "Shri Chhetrapal Lower Secondary School", "amenity": "school", "healthcare": null, "kind": "Education" }, "geometry": { "type": "Polygon", "coordinates": [ [ [ 85.094662, 27.863393 ], [ 85.094742, 27.863201 ], [ 85.094882, 27.863127 ], [ 85.095106, 27.863081 ], [ 85.095311, 27.863123 ], [ 85.095343, 27.863208 ], [ 85.09548, 27.863367 ], [ 85.095459, 27.863415 ], [ 85.095203, 27.863547 ], [ 85.094921, 27.863549 ], [ 85.094686, 27.863508 ], [ 85.094662, 27.863393 ] ] ] } },
{ "type": "Feature", "properties": { "name": "shree satyawati higher secondary school", "amenity": "school", "healthcare": null, "kind": "Education" }, "geometry": { "type": "Polygon", "coordinates": [ [ [ 84.940011, 27.808505 ], [ 84.940203, 27.808377 ], [ 84.940318, 27.808639 ], [ 84.940431, 27.808964 ], [ 84.94029, 27.808993 ], [ 84.940131, 27.808915 ], [ 84.940101, 27.808802 ], [ 84.940011, 27.808505 ] ] ] } },
{ "type": "Feature", "properties": { "name": "Shree Rakta Bachchhala Ni Ma Vi", "amenity": "school", "healthcare": null, "kind": "Education" }, "geometry": { "type": "Polygon", "coordinates": [ [ [ 84.966942, 27.812898 ], [ 84.96753, 27.812747 ], [ 84.967697, 27.81315 ], [ 84.967085, 27.813174 ], [ 84.966942, 27.812898 ] ] ] } },
{ "type": "Feature", "properties": { "name": "Shree Barahi Pra Vi", "amenity": "school", "healthcare": null, "kind": "Education" }, "geometry": { "type": "Polygon", "coordinates": [ [ [ 85.003566, 27.805466 ], [ 85.003613, 27.805412 ], [ 85.003689, 27.805361 ], [ 85.003756, 27.805321 ], [ 85.00381, 27.805356 ], [ 85.003881, 27.80539 ], [ 85.003971, 27.805458 ], [ 85.003918, 27.805542 ], [ 85.003752, 27.805689 ], [ 85.003662, 27.805631 ], [ 85.003629, 27.805593 ], [ 85.003583, 27.805524 ], [ 85.003566, 27.805466 ] ] ] } },
{ "type": "Feature", "properties": { "name": "Madrassa Islamiyafaijul Ulum", "amenity": "school", "healthcare": null, "kind": "Education" }, "geometry": { "type": "Polygon", "coordinates": [ [ [ 84.774482, 27.809588 ], [ 84.774606, 27.809541 ], [ 84.774711, 27.809552 ], [ 84.774878, 27.809604 ], [ 84.77502, 27.809666 ], [ 84.774982, 27.809764 ], [ 84.774941, 27.809995 ], [ 84.774527, 27.809867 ], [ 84.774482, 27.809588 ] ] ] } },
{ "type": "Feature", "properties": { "name": "Shree Aadarsha HS School", "amenity": "school", "healthcare": null, "kind": "Education" }, "geometry": { "type": "Polygon", "coordinates": [ [ [ 84.878555, 27.808108 ], [ 84.878676, 27.807607 ], [ 84.878877, 27.807249 ], [ 84.878982, 27.807052 ], [ 84.879151, 27.806915 ], [ 84.879341, 27.806865 ], [ 84.879443, 27.806936 ], [ 84.879494, 27.807038 ], [ 84.879547, 27.807121 ], [ 84.879575, 27.807179 ], [ 84.879617, 27.807249 ], [ 84.879674, 27.807335 ], [ 84.879807, 27.807344 ], [ 84.879865, 27.807368 ], [ 84.879926, 27.807433 ], [ 84.880031, 27.807666 ], [ 84.880095, 27.807733 ], [ 84.880205, 27.808016 ], [ 84.880226, 27.808177 ], [ 84.880162, 27.808329 ], [ 84.880071, 27.808419 ], [ 84.87969, 27.808507 ], [ 84.879392, 27.808376 ], [ 84.879094, 27.808265 ], [ 84.878807, 27.808177 ], [ 84.878555, 27.808108 ] ] ] } },
{ "type": "Feature", "properties": { "name": "Shree Bhadrakali Gurukul Saskriti Bidhyalaya", "amenity": "school", "healthcare": null, "kind": "Education" }, "geometry": { "type": "Polygon", "coordinates": [ [ [ 84.83562, 27.806924 ], [ 84.835669, 27.806873 ], [ 84.835892, 27.806887 ], [ 84.836054, 27.806779 ], [ 84.836153, 27.806842 ], [ 84.836153, 27.80709 ], [ 84.836204, 27.807228 ], [ 84.83602, 27.807399 ], [ 84.835958, 27.807344 ], [ 84.83562, 27.806924 ] ] ] } },
{ "type": "Feature", "properties": { "name": "Shree Bageshwori Pra V", "amenity": "school", "healthcare": null, "kind": "Education" }, "geometry": { "type": "Polygon", "coordinates": [ [ [ 84.866943, 27.800438 ], [ 84.866949, 27.800391 ], [ 84.866996, 27.800336 ], [ 84.867068, 27.800355 ], [ 84.867218, 27.800394 ], [ 84.867319, 27.800431 ], [ 84.86737, 27.800389 ], [ 84.867413, 27.800375 ], [ 84.867468, 27.800373 ], [ 84.867417, 27.800514 ], [ 84.867281, 27.800555 ], [ 84.867137, 27.800556 ], [ 84.867051, 27.800494 ], [ 84.866943, 27.800438 ] ] ] } },
{ "type": "Feature", "properties": { "name": "Shree Ramchandra Ni Ma Vi", "amenity": "school", "healthcare": null, "kind": "Education" }, "geometry": { "type": "Polygon", "coordinates": [ [ [ 85.184337, 27.970807 ], [ 85.184351, 27.970729 ], [ 85.184461, 27.970741 ], [ 85.184629, 27.970679 ], [ 85.184848, 27.97111 ], [ 85.1848, 27.971143 ], [ 85.184715, 27.971034 ], [ 85.184569, 27.971104 ], [ 85.184337, 27.970807 ] ] ] } },
{ "type": "Feature", "properties": { "name": "Shree Mahakali Ma V", "amenity": "school", "healthcare": null, "kind": "Education" }, "geometry": { "type": "Polygon", "coordinates": [ [ [ 84.910987, 27.807441 ], [ 84.910998, 27.807136 ], [ 84.911133, 27.807091 ], [ 84.911326, 27.807063 ], [ 84.911335, 27.807074 ], [ 84.911711, 27.807159 ], [ 84.911772, 27.807349 ], [ 84.911675, 27.807482 ], [ 84.911577, 27.807658 ], [ 84.91147, 27.807717 ], [ 84.911229, 27.807833 ], [ 84.911148, 27.807786 ], [ 84.911054, 27.807606 ], [ 84.910987, 27.807441 ] ] ] } },
{ "type": "Feature", "properties": { "name": null, "amenity": null, "healthcare": null, "kind": "Education" }, "geometry": { "type": "Polygon", "coordinates": [ [ [ 84.911013, 27.807142 ], [ 84.911123, 27.807125 ], [ 84.91114, 27.807205 ], [ 84.911029, 27.807223 ], [ 84.911013, 27.807142 ] ] ] } },
{ "type": "Feature", "properties": { "name": null, "amenity": null, "healthcare": null, "kind": "Education" }, "geometry": { "type": "Polygon", "coordinates": [ [ [ 84.911196, 27.807102 ], [ 84.911335, 27.807074 ], [ 84.911358, 27.807162 ], [ 84.911218, 27.807191 ], [ 84.911196, 27.807102 ] ] ] } },
{ "type": "Feature", "properties": { "name": "Shree Chandeswori Uchha Ma.Vi.", "amenity": "school", "healthcare": null, "kind": "Education" }, "geometry": { "type": "Polygon", "coordinates": [ [ [ 85.168211, 27.964459 ], [ 85.168341, 27.964168 ], [ 85.168485, 27.964068 ], [ 85.169252, 27.964271 ], [ 85.168908, 27.964898 ], [ 85.168456, 27.964662 ], [ 85.168211, 27.964459 ] ] ] } }
]
}
