{
"type": "FeatureCollection",
"name": "hydropowers",
"crs": { "type": "name", "properties": { "name": "urn:ogc:def:crs:OGC:1.3:CRS84" } },
"xy_coordinate_resolution": 1e-06,
"features": [
{ "type": "Feature", "properties": { "name": "Bhotekoshi Khola Hydropower Project", "capacity_mw": 33.5, "river": "Bhote Koshi", "status": "Survey", "district": "RASUWA", "municipality": "Gosaikunda" }, "geometry": { "type": "Point", "coordinates": [ 85.345833, 28.170833 ] } },
{ "type": "Feature", "properties": { "name": "Devighat", "capacity_mw": 14.1, "river": "Trishuli", "status": "Operation", "district": "NUWAKOT", "municipality": "Panchakanya" }, "geometry": { "type": "Point", "coordinates": [ 85.138889, 27.902222 ] } },
{ "type": "Feature", "properties": { "name": "Rasuwa Bhotekoshi", "capacity_mw": 120.0, "river": "Bhote koshi", "status": "Under Construction", "district": "RASUWA", "municipality": "Gosaikunda" }, "geometry": { "type": "Point", "coordinates": [ 85.354167, 28.204722 ] } },
{ "type": "Feature", "properties": { "name": "Rasuwagadhi", "capacity_mw": 111.0, "river": "Bhote koshi", "status": "Under Construction", "district": "RASUWA", "municipality": "Gosaikunda" }, "geometry": { "type": "Point", "coordinates": [ 85.370139, 28.251111 ] } },
{ "type": "Feature", "properties": { "name": "Trishuli", "capacity_mw": 24.0, "river": "Trishuli", "status": "Operation", "district": "NUWAKOT", "municipality": "Suryagadhi" }, "geometry": { "type": "Point", "coordinates": [ 85.166111, 27.946389 ] } },
{ "type": "Feature", "properties": { "name": "Trishuli Galchhi", "capacity_mw": 75.0, "river": "Trishuli", "status": "Under Construction", "district": "NUWAKOT", "municipality": "Meghang" }, "geometry": { "type": "Point", "coordinates": [ 85.022917, 27.827778 ] } },
{ "type": "Feature", "properties": { "name": "Upper Trishuli 3A", "capacity_mw": 60.0, "river": "Trishuli", "status": "Under Construction", "district": "RASUWA", "municipality": "Kalika" }, "geometry": { "type": "Point", "coordinates": [ 85.199167, 28.046528 ] } },
{ "type": "Feature", "properties": { "name": "Upper Trishuli 3B", "capacity_mw": 37.0, "river": "Trishuli", "status": "Under Construction", "district": "RASUWA", "municipality": "Uttargaya" }, "geometry": { "type": "Point", "coordinates": [ 85.185, 28.004583 ] } },
{ "type": "Feature", "properties": { "name": "Upper Trishuli-1", "capacity_mw": 216.0, "river": "Trishuli", "status": "Under Construction", "district": "RASUWA", "municipality": "Parbati Kunda" }, "geometry": { "type": "Point", "coordinates": [ 85.255972, 28.10125 ] } },
{ "type": "Feature", "properties": { "name": "Upper Trishuli-I Cascade HEP", "capacity_mw": 24.6, "river": "Trishuli Ganga", "status": "Survey", "district": "RASUWA", "municipality": "Parbati Kunda" }, "geometry": { "type": "Point", "coordinates": [ 85.209028, 28.0725 ] } }
]
}
