{
"type": "FeatureCollection",
"name": "places",
"crs": { "type": "name", "properties": { "name": "urn:ogc:def:crs:OGC:1.3:CRS84" } },
"xy_coordinate_resolution": 1e-06,
"features": [
{ "type": "Feature", "properties": { "name": "Silintar", "place": "village", "population": null }, "geometry": { "type": "Point", "coordinates": [ 84.590809, 27.882025 ] } },
{ "type": "Feature", "properties": { "name": "रसुवागढी", "place": "hamlet", "population": null }, "geometry": { "type": "Point", "coordinates": [ 85.377779, 28.277775 ] } },
{ "type": "Feature", "properties": { "name": "स्याफ्रु बेसी", "place": "hamlet", "population": null }, "geometry": { "type": "Point", "coordinates": [ 85.342743, 28.164569 ] } },
{ "type": "Feature", "properties": { "name": null, "place": "hamlet", "population": null }, "geometry": { "type": "Point", "coordinates": [ 85.345821, 28.176722 ] } },
{ "type": "Feature", "properties": { "name": "स्याप्रु बेसी", "place": "village", "population": null }, "geometry": { "type": "Point", "coordinates": [ 85.337252, 28.163667 ] } },
{ "type": "Feature", "properties": { "name": null, "place": "hamlet", "population": null }, "geometry": { "type": "Point", "coordinates": [ 85.360961, 28.225729 ] } },
{ "type": "Feature", "properties": { "name": null, "place": "village", "population": null }, "geometry": { "type": "Point", "coordinates": [ 85.33647, 28.16242 ] } },
{ "type": "Feature", "properties": { "name": null, "place": "hamlet", "population": null }, "geometry": { "type": "Point", "coordinates": [ 85.094769, 27.858111 ] } },
{ "type": "Feature", "properties": { "name": null, "place": "hamlet", "population": null }, "geometry": { "type": "Point", "coordinates": [ 85.080906, 27.854244 ] } },
{ "type": "Feature", "properties": { "name": null, "place": "hamlet", "population": null }, "geometry": { "type": "Point", "coordinates": [ 85.08496, 27.857926 ] } },
{ "type": "Feature", "properties": { "name": "देवीघाट", "place": "hamlet", "population": null }, "geometry": { "type": "Point", "coordinates": [ 85.110063, 27.860032 ] } },
{ "type": "Feature", "properties": { "name": null, "place": "village", "population": null }, "geometry": { "type": "Point", "coordinates": [ 85.000939, 27.803202 ] } },
{ "type": "Feature", "properties": { "name": "आदमघाट", "place": "hamlet", "population": null }, "geometry": { "type": "Point", "coordinates": [ 84.942947, 27.806968 ] } },
{ "type": "Feature", "properties": { "name": "महेश-दोभान", "place": "hamlet", "population": null }, "geometry": { "type": "Point", "coordinates": [ 84.980042, 27.801045 ] } },
{ "type": "Feature", "properties": { "name": "घाटबेंसी", "place": "hamlet", "population": null }, "geometry": { "type": "Point", "coordinates": [ 84.905268, 27.804498 ] } },
{ "type": "Feature", "properties": { "name": null, "place": "hamlet", "population": null }, "geometry": { "type": "Point", "coordinates": [ 84.995379, 27.8058 ] } },
{ "type": "Feature", "properties": { "name": "सिम्ले", "place": "hamlet", "population": null }, "geometry": { "type": "Point", "coordinates": [ 85.191197, 28.0292 ] } },
{ "type": "Feature", "properties": { "name": "मैलुङ", "place": "hamlet", "population": null }, "geometry": { "type": "Point", "coordinates": [ 85.207003, 28.071774 ] } },
{ "type": "Feature", "properties": { "name": "सलाङघाट", "place": "hamlet", "population": null }, "geometry": { "type": "Point", "coordinates": [ 84.808347, 27.816359 ] } },
{ "type": "Feature", "properties": { "name": "मलेखु", "place": "hamlet", "population": null }, "geometry": { "type": "Point", "coordinates": [ 84.82724, 27.813705 ] } },
{ "type": "Feature", "properties": { "name": "पुराणो मलेखु", "place": "hamlet", "population": null }, "geometry": { "type": "Point", "coordinates": [ 84.836209, 27.806219 ] } },
{ "type": "Feature", "properties": { "name": "Ghyalchok", "place": "village", "population": null }, "geometry": { "type": "Point", "coordinates": [ 84.772468, 27.810645 ] } },
{ "type": "Feature", "properties": { "name": "बेनीघाट रोराङ", "place": "village", "population": null }, "geometry": { "type": "Point", "coordinates": [ 84.769707, 27.80742 ] } },
{ "type": "Feature", "properties": { "name": "Dhussa", "place": "village", "population": null }, "geometry": { "type": "Point", "coordinates": [ 84.751626, 27.803861 ] } },
{ "type": "Feature", "properties": { "name": null, "place": "hamlet", "population": null }, "geometry": { "type": "Point", "coordinates": [ 84.698947, 27.809396 ] } },
{ "type": "Feature", "properties": { "name": "फिस्लिङ", "place": "hamlet", "population": null }, "geometry": { "type": "Point", "coordinates": [ 84.661724, 27.842805 ] } },
{ "type": "Feature", "properties": { "name": "नौविसे फाँट", "place": "hamlet", "population": null }, "geometry": { "type": "Point", "coordinates": [ 85.182562, 27.984691 ] } },
{ "type": "Feature", "properties": { "name": "बेत्रावती", "place": "hamlet", "population": null }, "geometry": { "type": "Point", "coordinates": [ 85.185953, 27.973108 ] } },
{ "type": "Feature", "properties": { "name": null, "place": "town", "population": null }, "geometry": { "type": "Point", "coordinates": [ 85.147993, 27.92316 ] } },
{ "type": "Feature", "properties": { "name": "मुग्लिङ", "place": "hamlet", "population": "1500" }, "geometry": { "type": "Point", "coordinates": [ 84.560951, 27.856162 ] } },
{ "type": "Feature", "properties": { "name": null, "place": "hamlet", "population": null }, "geometry": { "type": "Point", "coordinates": [ 84.696487, 27.810413 ] } },
{ "type": "Feature", "properties": { "name": null, "place": "hamlet", "population": null }, "geometry": { "type": "Point", "coordinates": [ 84.697838, 27.805864 ] } },
{ "type": "Feature", "properties": { "name": null, "place": "hamlet", "population": null }, "geometry": { "type": "Point", "coordinates": [ 84.701009, 27.806331 ] } },
{ "type": "Feature", "properties": { "name": null, "place": "hamlet", "population": null }, "geometry": { "type": "Point", "coordinates": [ 84.703461, 27.805826 ] } },
{ "type": "Feature", "properties": { "name": null, "place": "hamlet", "population": null }, "geometry": { "type": "Point", "coordinates": [ 84.702165, 27.808837 ] } },
{ "type": "Feature", "properties": { "name": null, "place": "hamlet", "population": null }, "geometry": { "type": "Point", "coordinates": [ 84.69076, 27.811171 ] } },
{ "type": "Feature", "properties": { "name": "भैंसे", "place": "hamlet", "population": null }, "geometry": { "type": "Point", "coordinates": [ 85.170331, 27.960367 ] } },
{ "type": "Feature", "properties": { "name": null, "place": "village", "population": null }, "geometry": { "type": "Polygon", "coordinates": [ [ [ 84.974055, 27.804528 ], [ 84.97414, 27.804457 ], [ 84.974212, 27.80438 ], [ 84.974292, 27.804386 ], [ 84.974361, 27.804333 ], [ 84.974452, 27.804301 ], [ 84.974432, 27.804402 ], [ 84.974554, 27.804276 ], [ 84.974656, 27.804305 ], [ 84.974897, 27.804026 ], [ 84.974878, 27.80391 ], [ 84.974973, 27.803802 ], [ 84.975153, 27.803901 ], [ 84.975204, 27.80394 ], [ 84.975332, 27.804082 ], [ 84.975389, 27.804054 ], [ 84.975594, 27.803879 ], [ 84.97547, 27.803809 ], [ 84.975778, 27.803408 ], [ 84.975902, 27.803493 ], [ 84.97581, 27.803696 ], [ 84.9757, 27.803814 ], [ 84.975753, 27.803866 ], [ 84.97569, 27.80401 ], [ 84.975628, 27.804076 ], [ 84.975537, 27.804138 ], [ 84.975452, 27.804096 ], [ 84.975397, 27.804164 ], [ 84.975359, 27.804251 ], [ 84.975473, 27.804261 ], [ 84.97554, 27.804279 ], [ 84.975555, 27.804331 ], [ 84.975497, 27.804425 ], [ 84.97532, 27.80443 ], [ 84.975243, 27.804382 ], [ 84.97529, 27.804278 ], [ 84.975265, 27.804252 ], [ 84.975168, 27.80436 ], [ 84.97508, 27.804329 ], [ 84.975088, 27.804181 ], [ 84.974946, 27.804053 ], [ 84.974696, 27.804339 ], [ 84.974648, 27.804431 ], [ 84.974625, 27.804474 ], [ 84.974474, 27.804498 ], [ 84.974393, 27.804626 ], [ 84.974182, 27.804621 ], [ 84.974055, 27.804528 ] ] ] } },
{ "type": "Feature", "properties": { "name": null, "place": "village", "population": null }, "geometry": { "type": "Polygon", "coordinates": [ [ [ 84.634316, 27.865594 ], [ 84.634759, 27.86466 ], [ 84.6353, 27.863066 ], [ 84.635137, 27.862943 ], [ 84.635426, 27.862616 ], [ 84.635308, 27.862365 ], [ 84.63467, 27.862151 ], [ 84.634708, 27.861701 ], [ 84.635013, 27.861226 ], [ 84.635788, 27.860833 ], [ 84.636145, 27.861473 ], [ 84.636381, 27.861316 ], [ 84.636655, 27.861089 ], [ 84.637234, 27.860804 ], [ 84.637578, 27.860498 ], [ 84.638232, 27.860441 ], [ 84.638436, 27.860861 ], [ 84.638852, 27.860716 ], [ 84.639089, 27.860931 ], [ 84.639354, 27.860738 ], [ 84.639559, 27.860703 ], [ 84.639766, 27.860804 ], [ 84.639943, 27.860929 ], [ 84.640342, 27.860948 ], [ 84.641145, 27.860577 ], [ 84.642057, 27.860861 ], [ 84.642202, 27.861278 ], [ 84.643888, 27.861568 ], [ 84.648972, 27.860939 ], [ 84.649134, 27.861262 ], [ 84.649417, 27.861162 ], [ 84.649969, 27.860325 ], [ 84.65042, 27.859699 ], [ 84.650774, 27.858902 ], [ 84.652134, 27.858981 ], [ 84.652641, 27.859415 ], [ 84.653113, 27.860401 ], [ 84.653424, 27.860785 ], [ 84.654014, 27.860719 ], [ 84.654395, 27.860847 ], [ 84.654652, 27.861193 ], [ 84.654497, 27.862118 ], [ 84.653486, 27.861755 ], [ 84.652735, 27.86152 ], [ 84.65248, 27.861302 ], [ 84.653032, 27.860897 ], [ 84.652898, 27.860712 ], [ 84.652273, 27.860923 ], [ 84.651147, 27.861245 ], [ 84.649519, 27.862355 ], [ 84.648819, 27.8616 ], [ 84.646692, 27.861819 ], [ 84.644208, 27.862995 ], [ 84.64438, 27.86346 ], [ 84.644787, 27.86411 ], [ 84.643993, 27.863839 ], [ 84.642703, 27.863116 ], [ 84.641435, 27.862367 ], [ 84.641114, 27.862367 ], [ 84.641688, 27.86355 ], [ 84.641375, 27.864048 ], [ 84.640896, 27.86322 ], [ 84.640088, 27.86346 ], [ 84.639575, 27.863535 ], [ 84.639245, 27.863451 ], [ 84.639018, 27.863583 ], [ 84.638784, 27.86353 ], [ 84.638478, 27.864209 ], [ 84.638843, 27.865509 ], [ 84.638323, 27.866358 ], [ 84.63717, 27.866045 ], [ 84.636987, 27.865324 ], [ 84.637588, 27.86503 ], [ 84.638114, 27.864579 ], [ 84.638307, 27.864266 ], [ 84.638135, 27.863944 ], [ 84.63768, 27.864119 ], [ 84.636725, 27.864665 ], [ 84.636177, 27.864733 ], [ 84.635821, 27.866633 ], [ 84.635222, 27.867918 ], [ 84.634783, 27.867463 ], [ 84.634552, 27.867069 ], [ 84.635013, 27.866395 ], [ 84.635056, 27.865959 ], [ 84.634316, 27.865594 ] ] ] } },
{ "type": "Feature", "properties": { "name": null, "place": "village", "population": null }, "geometry": { "type": "Polygon", "coordinates": [ [ [ 85.045931, 27.857779 ], [ 85.046155, 27.856851 ], [ 85.046897, 27.856963 ], [ 85.046845, 27.857346 ], [ 85.047038, 27.857334 ], [ 85.047388, 27.857257 ], [ 85.047934, 27.857484 ], [ 85.04834, 27.858145 ], [ 85.048759, 27.857897 ], [ 85.049094, 27.858026 ], [ 85.049244, 27.858462 ], [ 85.049798, 27.858672 ], [ 85.050009, 27.85848 ], [ 85.050512, 27.85874 ], [ 85.049912, 27.858979 ], [ 85.048626, 27.858476 ], [ 85.048036, 27.858235 ], [ 85.045931, 27.857779 ] ] ] } },
{ "type": "Feature", "properties": { "name": "Keurintar Village Area", "place": "village", "population": null }, "geometry": { "type": "Polygon", "coordinates": [ [ [ 84.963826, 27.818094 ], [ 84.963948, 27.817769 ], [ 84.964454, 27.817749 ], [ 84.964749, 27.817553 ], [ 84.96489, 27.817584 ], [ 84.965038, 27.817767 ], [ 84.965335, 27.817903 ], [ 84.965436, 27.817989 ], [ 84.965018, 27.818157 ], [ 84.964985, 27.818213 ], [ 84.96512, 27.818529 ], [ 84.964867, 27.818595 ], [ 84.964601, 27.818413 ], [ 84.964571, 27.818215 ], [ 84.964539, 27.818133 ], [ 84.963826, 27.818094 ] ] ] } },
{ "type": "Feature", "properties": { "name": null, "place": "village", "population": null }, "geometry": { "type": "Polygon", "coordinates": [ [ [ 85.002515, 27.805134 ], [ 85.002658, 27.804595 ], [ 85.002666, 27.804271 ], [ 85.002601, 27.804063 ], [ 85.002588, 27.80394 ], [ 85.002653, 27.803603 ], [ 85.002819, 27.803625 ], [ 85.002839, 27.803969 ], [ 85.002782, 27.804076 ], [ 85.002686, 27.804074 ], [ 85.002778, 27.804305 ], [ 85.002934, 27.804364 ], [ 85.002883, 27.804533 ], [ 85.002753, 27.804668 ], [ 85.002717, 27.805038 ], [ 85.003031, 27.805107 ], [ 85.003142, 27.804709 ], [ 85.003648, 27.804861 ], [ 85.003606, 27.805206 ], [ 85.003644, 27.805294 ], [ 85.003995, 27.805411 ], [ 85.003747, 27.805774 ], [ 85.003635, 27.805861 ], [ 85.003752, 27.805972 ], [ 85.003658, 27.806175 ], [ 85.003822, 27.806212 ], [ 85.00392, 27.806117 ], [ 85.004069, 27.806195 ], [ 85.004438, 27.806336 ], [ 85.004521, 27.806465 ], [ 85.004281, 27.806737 ], [ 85.00417, 27.806704 ], [ 85.004103, 27.806601 ], [ 85.004361, 27.80659 ], [ 85.004423, 27.806499 ], [ 85.004257, 27.806394 ], [ 85.004378, 27.806345 ], [ 85.003996, 27.806222 ], [ 85.003872, 27.806488 ], [ 85.003714, 27.806448 ], [ 85.003792, 27.806279 ], [ 85.003338, 27.80623 ], [ 85.003454, 27.806086 ], [ 85.003494, 27.805866 ], [ 85.003345, 27.805619 ], [ 85.003067, 27.805538 ], [ 85.003254, 27.80533 ], [ 85.002802, 27.805184 ], [ 85.002515, 27.805134 ] ] ] } },
{ "type": "Feature", "properties": { "name": null, "place": "village", "population": null }, "geometry": { "type": "Polygon", "coordinates": [ [ [ 84.975844, 27.80377 ], [ 84.975994, 27.803612 ], [ 84.976099, 27.803498 ], [ 84.97607, 27.803321 ], [ 84.976249, 27.803225 ], [ 84.976493, 27.803504 ], [ 84.976247, 27.803583 ], [ 84.976316, 27.803764 ], [ 84.97651, 27.803794 ], [ 84.976531, 27.803991 ], [ 84.976174, 27.80399 ], [ 84.976252, 27.803754 ], [ 84.975916, 27.803856 ], [ 84.975844, 27.80377 ] ] ] } },
{ "type": "Feature", "properties": { "name": null, "place": "village", "population": null }, "geometry": { "type": "Polygon", "coordinates": [ [ [ 85.051446, 27.859506 ], [ 85.052136, 27.859242 ], [ 85.051928, 27.858921 ], [ 85.051534, 27.858914 ], [ 85.052159, 27.858164 ], [ 85.053255, 27.858794 ], [ 85.05327, 27.8589 ], [ 85.054023, 27.859465 ], [ 85.055126, 27.85984 ], [ 85.055156, 27.860053 ], [ 85.055181, 27.860091 ], [ 85.056069, 27.860142 ], [ 85.056149, 27.860473 ], [ 85.055883, 27.861374 ], [ 85.055853, 27.861432 ], [ 85.054161, 27.860858 ], [ 85.053141, 27.860513 ], [ 85.052778, 27.860123 ], [ 85.051446, 27.859506 ] ] ] } },
{ "type": "Feature", "properties": { "name": null, "place": "village", "population": null }, "geometry": { "type": "Polygon", "coordinates": [ [ [ 84.976363, 27.803271 ], [ 84.976471, 27.803106 ], [ 84.976702, 27.803031 ], [ 84.977077, 27.803217 ], [ 84.977322, 27.803245 ], [ 84.977481, 27.803263 ], [ 84.97764, 27.803245 ], [ 84.977603, 27.802979 ], [ 84.978365, 27.802909 ], [ 84.978362, 27.803059 ], [ 84.977876, 27.803106 ], [ 84.97785, 27.803205 ], [ 84.977697, 27.803248 ], [ 84.977668, 27.803401 ], [ 84.977385, 27.803395 ], [ 84.977336, 27.803394 ], [ 84.977363, 27.803592 ], [ 84.977123, 27.803633 ], [ 84.977081, 27.803495 ], [ 84.977258, 27.803429 ], [ 84.977261, 27.803379 ], [ 84.977039, 27.803407 ], [ 84.977028, 27.803295 ], [ 84.976846, 27.80324 ], [ 84.976627, 27.803208 ], [ 84.976426, 27.803346 ], [ 84.976363, 27.803271 ] ] ] } },
{ "type": "Feature", "properties": { "name": null, "place": "village", "population": null }, "geometry": { "type": "Polygon", "coordinates": [ [ [ 84.837815, 27.800355 ], [ 84.837856, 27.800293 ], [ 84.837907, 27.800296 ], [ 84.837916, 27.800329 ], [ 84.83786, 27.800393 ], [ 84.837815, 27.800355 ] ] ] } },
{ "type": "Feature", "properties": { "name": null, "place": "village", "population": null }, "geometry": { "type": "Polygon", "coordinates": [ [ [ 84.638876, 27.859215 ], [ 84.639176, 27.858618 ], [ 84.640045, 27.858343 ], [ 84.639884, 27.857736 ], [ 84.64041, 27.857385 ], [ 84.6413, 27.857641 ], [ 84.641944, 27.857252 ], [ 84.643232, 27.857299 ], [ 84.643199, 27.857755 ], [ 84.644455, 27.857574 ], [ 84.645549, 27.857546 ], [ 84.646161, 27.857821 ], [ 84.645914, 27.857024 ], [ 84.646407, 27.856692 ], [ 84.647223, 27.857793 ], [ 84.647491, 27.857185 ], [ 84.648575, 27.857802 ], [ 84.648746, 27.858779 ], [ 84.647888, 27.859234 ], [ 84.646601, 27.859813 ], [ 84.645839, 27.860022 ], [ 84.644551, 27.859775 ], [ 84.642212, 27.859253 ], [ 84.641107, 27.859234 ], [ 84.640227, 27.85931 ], [ 84.639643, 27.859315 ], [ 84.639239, 27.859391 ], [ 84.638876, 27.859215 ] ] ] } },
{ "type": "Feature", "properties": { "name": null, "place": "village", "population": null }, "geometry": { "type": "Polygon", "coordinates": [ [ [ 84.969063, 27.803747 ], [ 84.969137, 27.803633 ], [ 84.969457, 27.803791 ], [ 84.969523, 27.803697 ], [ 84.969706, 27.803724 ], [ 84.969866, 27.803635 ], [ 84.970509, 27.803513 ], [ 84.970809, 27.803615 ], [ 84.97112, 27.803784 ], [ 84.971057, 27.80392 ], [ 84.970777, 27.803972 ], [ 84.970586, 27.803954 ], [ 84.970553, 27.803747 ], [ 84.970446, 27.803701 ], [ 84.970199, 27.803749 ], [ 84.969883, 27.803913 ], [ 84.969646, 27.803877 ], [ 84.969564, 27.804015 ], [ 84.969396, 27.804064 ], [ 84.969389, 27.803878 ], [ 84.969063, 27.803747 ] ] ] } },
{ "type": "Feature", "properties": { "name": null, "place": "village", "population": null }, "geometry": { "type": "Polygon", "coordinates": [ [ [ 84.972741, 27.806808 ], [ 84.97302, 27.80656 ], [ 84.973158, 27.806718 ], [ 84.973256, 27.806783 ], [ 84.973321, 27.806898 ], [ 84.973321, 27.807078 ], [ 84.973354, 27.807287 ], [ 84.97328, 27.807432 ], [ 84.973044, 27.807382 ], [ 84.973106, 27.807193 ], [ 84.973061, 27.807028 ], [ 84.972741, 27.806808 ] ] ] } },
{ "type": "Feature", "properties": { "name": "Adamghat", "place": "village", "population": null }, "geometry": { "type": "Polygon", "coordinates": [ [ [ 84.941474, 27.805208 ], [ 84.941571, 27.80513 ], [ 84.942025, 27.805487 ], [ 84.94236, 27.805791 ], [ 84.942542, 27.805655 ], [ 84.942795, 27.80584 ], [ 84.943245, 27.806073 ], [ 84.94317, 27.806263 ], [ 84.943458, 27.806506 ], [ 84.943669, 27.806879 ], [ 84.944039, 27.806882 ], [ 84.94427, 27.807107 ], [ 84.944479, 27.807753 ], [ 84.944502, 27.807952 ], [ 84.944467, 27.808093 ], [ 84.944645, 27.808035 ], [ 84.944803, 27.807942 ], [ 84.945079, 27.807895 ], [ 84.945471, 27.807925 ], [ 84.945576, 27.808265 ], [ 84.945687, 27.808478 ], [ 84.945829, 27.808518 ], [ 84.946062, 27.808708 ], [ 84.946317, 27.808689 ], [ 84.946429, 27.809138 ], [ 84.947536, 27.809147 ], [ 84.947932, 27.809865 ], [ 84.947363, 27.81004 ], [ 84.947047, 27.809983 ], [ 84.947146, 27.810091 ], [ 84.947425, 27.810442 ], [ 84.947425, 27.810452 ], [ 84.947281, 27.810598 ], [ 84.9472, 27.810666 ], [ 84.946974, 27.810803 ], [ 84.946939, 27.810795 ], [ 84.946599, 27.810717 ], [ 84.946416, 27.810603 ], [ 84.946254, 27.810532 ], [ 84.946095, 27.810461 ], [ 84.945762, 27.810471 ], [ 84.945643, 27.810815 ], [ 84.945317, 27.81095 ], [ 84.944955, 27.811443 ], [ 84.944217, 27.81104 ], [ 84.944142, 27.810679 ], [ 84.944196, 27.810611 ], [ 84.944112, 27.810316 ], [ 84.944025, 27.810039 ], [ 84.94401, 27.809956 ], [ 84.943958, 27.809636 ], [ 84.943816, 27.809335 ], [ 84.943969, 27.80924 ], [ 84.943782, 27.808748 ], [ 84.943639, 27.808198 ], [ 84.943375, 27.808243 ], [ 84.94327, 27.808026 ], [ 84.942715, 27.807521 ], [ 84.942156, 27.807208 ], [ 84.941989, 27.807058 ], [ 84.941982, 27.806631 ], [ 84.941923, 27.8061 ], [ 84.941802, 27.805883 ], [ 84.941474, 27.805208 ] ] ] } },
{ "type": "Feature", "properties": { "name": null, "place": "village", "population": null }, "geometry": { "type": "Polygon", "coordinates": [ [ [ 84.988822, 27.806598 ], [ 84.989223, 27.806149 ], [ 84.989522, 27.806286 ], [ 84.989578, 27.806477 ], [ 84.989441, 27.806547 ], [ 84.989178, 27.806391 ], [ 84.989024, 27.806542 ], [ 84.98984, 27.807249 ], [ 84.989727, 27.807399 ], [ 84.989504, 27.807219 ], [ 84.989121, 27.806903 ], [ 84.988822, 27.806598 ] ] ] } },
{ "type": "Feature", "properties": { "name": null, "place": "village", "population": null }, "geometry": { "type": "Polygon", "coordinates": [ [ [ 84.933517, 27.802211 ], [ 84.93369, 27.801922 ], [ 84.934859, 27.802382 ], [ 84.934639, 27.802679 ], [ 84.933517, 27.802211 ] ] ] } },
{ "type": "Feature", "properties": { "name": null, "place": "village", "population": null }, "geometry": { "type": "Polygon", "coordinates": [ [ [ 84.932067, 27.800158 ], [ 84.932334, 27.799869 ], [ 84.932743, 27.799753 ], [ 84.932875, 27.799703 ], [ 84.933279, 27.799935 ], [ 84.933586, 27.800106 ], [ 84.933429, 27.8006 ], [ 84.932857, 27.800723 ], [ 84.932067, 27.800158 ] ] ] } },
{ "type": "Feature", "properties": { "name": null, "place": "village", "population": null }, "geometry": { "type": "Polygon", "coordinates": [ [ [ 84.933266, 27.8016 ], [ 84.933864, 27.800981 ], [ 84.935199, 27.801835 ], [ 84.934927, 27.802271 ], [ 84.933266, 27.8016 ] ] ] } }
]
}
