{
"type": "FeatureCollection",
"name": "zones",
"crs": { "type": "name", "properties": { "name": "urn:ogc:def:crs:OGC:1.3:CRS84" } },
"xy_coordinate_resolution": 1e-06,
"features": [
{ "type": "Feature", "properties": { "zone_id": "Z1", "label": "Rasuwagadhi / Gyirong border", "radius_m": 2000 }, "geometry": { "type": "Polygon", "coordinates": [ [ [ 85.398386, 28.278241 ], [ 85.398314, 28.276471 ], [ 85.398047, 28.274715 ], [ 85.397586, 28.272992 ], [ 85.396937, 28.271316 ], [ 85.396106, 28.269705 ], [ 85.3951, 28.268174 ], [ 85.39393, 28.266737 ], [ 85.392606, 28.265409 ], [ 85.391142, 28.264203 ], [ 85.389551, 28.263129 ], [ 85.387849, 28.262198 ], [ 85.386053, 28.261419 ], [ 85.384178, 28.260801 ], [ 85.382244, 28.260347 ], [ 85.38027, 28.260064 ], [ 85.378273, 28.259953 ], [ 85.376274, 28.260017 ], [ 85.374292, 28.260253 ], [ 85.372345, 28.26066 ], [ 85.370453, 28.261234 ], [ 85.368633, 28.26197 ], [ 85.366903, 28.26286 ], [ 85.365281, 28.263896 ], [ 85.36378, 28.265067 ], [ 85.362417, 28.266363 ], [ 85.361204, 28.267772 ], [ 85.360152, 28.269278 ], [ 85.359272, 28.270869 ], [ 85.358573, 28.272528 ], [ 85.35806, 28.27424 ], [ 85.35774, 28.275989 ], [ 85.357615, 28.277756 ], [ 85.357686, 28.279526 ], [ 85.357952, 28.281282 ], [ 85.358412, 28.283006 ], [ 85.35906, 28.284681 ], [ 85.359891, 28.286292 ], [ 85.360897, 28.287824 ], [ 85.362067, 28.28926 ], [ 85.36339, 28.290589 ], [ 85.364854, 28.291796 ], [ 85.366445, 28.29287 ], [ 85.368148, 28.293801 ], [ 85.369945, 28.29458 ], [ 85.37182, 28.295199 ], [ 85.373754, 28.295652 ], [ 85.375729, 28.295936 ], [ 85.377726, 28.296047 ], [ 85.379726, 28.295983 ], [ 85.381709, 28.295747 ], [ 85.383657, 28.29534 ], [ 85.38555, 28.294765 ], [ 85.38737, 28.29403 ], [ 85.3891, 28.293139 ], [ 85.390723, 28.292103 ], [ 85.392223, 28.290931 ], [ 85.393586, 28.289635 ], [ 85.3948, 28.288226 ], [ 85.395851, 28.28672 ], [ 85.39673, 28.285129 ], [ 85.397429, 28.283469 ], [ 85.397941, 28.281757 ], [ 85.398261, 28.280008 ], [ 85.398386, 28.278241 ] ] ] } },
{ "type": "Feature", "properties": { "zone_id": "Z2a", "label": "Timure dry port", "radius_m": 1800 }, "geometry": { "type": "Polygon", "coordinates": [ [ [ 85.395341, 28.245217 ], [ 85.395277, 28.243624 ], [ 85.395036, 28.242044 ], [ 85.394622, 28.240492 ], [ 85.394038, 28.238985 ], [ 85.39329, 28.237535 ], [ 85.392386, 28.236157 ], [ 85.391333, 28.234864 ], [ 85.390142, 28.233668 ], [ 85.388824, 28.232582 ], [ 85.387393, 28.231616 ], [ 85.385862, 28.230778 ], [ 85.384245, 28.230077 ], [ 85.382559, 28.22952 ], [ 85.380819, 28.229112 ], [ 85.379042, 28.228858 ], [ 85.377246, 28.228758 ], [ 85.375447, 28.228815 ], [ 85.373663, 28.229028 ], [ 85.371912, 28.229394 ], [ 85.370209, 28.229911 ], [ 85.368572, 28.230573 ], [ 85.367016, 28.231374 ], [ 85.365556, 28.232306 ], [ 85.364206, 28.233361 ], [ 85.362979, 28.234527 ], [ 85.361888, 28.235795 ], [ 85.360941, 28.237151 ], [ 85.36015, 28.238582 ], [ 85.359521, 28.240076 ], [ 85.35906, 28.241617 ], [ 85.358771, 28.24319 ], [ 85.358659, 28.244781 ], [ 85.358723, 28.246374 ], [ 85.358963, 28.247954 ], [ 85.359376, 28.249505 ], [ 85.35996, 28.251013 ], [ 85.360707, 28.252463 ], [ 85.361612, 28.253842 ], [ 85.362665, 28.255135 ], [ 85.363855, 28.25633 ], [ 85.365173, 28.257416 ], [ 85.366604, 28.258383 ], [ 85.368136, 28.259221 ], [ 85.369753, 28.259922 ], [ 85.37144, 28.260479 ], [ 85.37318, 28.260887 ], [ 85.374957, 28.261142 ], [ 85.376754, 28.261242 ], [ 85.378553, 28.261185 ], [ 85.380337, 28.260972 ], [ 85.38209, 28.260606 ], [ 85.383793, 28.260089 ], [ 85.38543, 28.259427 ], [ 85.386987, 28.258625 ], [ 85.388447, 28.257693 ], [ 85.389797, 28.256638 ], [ 85.391023, 28.255472 ], [ 85.392115, 28.254204 ], [ 85.393061, 28.252848 ], [ 85.393852, 28.251416 ], [ 85.394481, 28.249922 ], [ 85.394942, 28.248381 ], [ 85.395229, 28.246808 ], [ 85.395341, 28.245217 ] ] ] } },
{ "type": "Feature", "properties": { "zone_id": "Z2b", "label": "Ghattekhola", "radius_m": 1500 }, "geometry": { "type": "Polygon", "coordinates": [ [ [ 85.387281, 28.222181 ], [ 85.387228, 28.220854 ], [ 85.387027, 28.219537 ], [ 85.386682, 28.218244 ], [ 85.386196, 28.216988 ], [ 85.385573, 28.215779 ], [ 85.384819, 28.214631 ], [ 85.383942, 28.213554 ], [ 85.38295, 28.212557 ], [ 85.381852, 28.211652 ], [ 85.38066, 28.210847 ], [ 85.379384, 28.210149 ], [ 85.378037, 28.209565 ], [ 85.376632, 28.2091 ], [ 85.375182, 28.20876 ], [ 85.373702, 28.208548 ], [ 85.372205, 28.208465 ], [ 85.370707, 28.208512 ], [ 85.369221, 28.20869 ], [ 85.367761, 28.208995 ], [ 85.366343, 28.209426 ], [ 85.364978, 28.209977 ], [ 85.363682, 28.210645 ], [ 85.362465, 28.211422 ], [ 85.361341, 28.2123 ], [ 85.360319, 28.213272 ], [ 85.359409, 28.214329 ], [ 85.358621, 28.215459 ], [ 85.357961, 28.216652 ], [ 85.357437, 28.217896 ], [ 85.357053, 28.21918 ], [ 85.356813, 28.220491 ], [ 85.356719, 28.221817 ], [ 85.356772, 28.223145 ], [ 85.356972, 28.224461 ], [ 85.357317, 28.225754 ], [ 85.357803, 28.227011 ], [ 85.358426, 28.228219 ], [ 85.359179, 28.229368 ], [ 85.360056, 28.230445 ], [ 85.361048, 28.231442 ], [ 85.362146, 28.232347 ], [ 85.363339, 28.233153 ], [ 85.364615, 28.233851 ], [ 85.365962, 28.234435 ], [ 85.367367, 28.234899 ], [ 85.368817, 28.235239 ], [ 85.370298, 28.235452 ], [ 85.371795, 28.235535 ], [ 85.373294, 28.235488 ], [ 85.37478, 28.23531 ], [ 85.37624, 28.235005 ], [ 85.377659, 28.234574 ], [ 85.379023, 28.234022 ], [ 85.38032, 28.233355 ], [ 85.381536, 28.232578 ], [ 85.382661, 28.231699 ], [ 85.383683, 28.230727 ], [ 85.384593, 28.22967 ], [ 85.385381, 28.22854 ], [ 85.38604, 28.227347 ], [ 85.386564, 28.226102 ], [ 85.386948, 28.224818 ], [ 85.387188, 28.223507 ], [ 85.387281, 28.222181 ] ] ] } },
{ "type": "Feature", "properties": { "zone_id": "Z3", "label": "Rasuwagadhi HPP 111 MW", "radius_m": 1500 }, "geometry": { "type": "Polygon", "coordinates": [ [ [ 85.390788, 28.270181 ], [ 85.390734, 28.268853 ], [ 85.390534, 28.267537 ], [ 85.390189, 28.266244 ], [ 85.389702, 28.264988 ], [ 85.389079, 28.263779 ], [ 85.388325, 28.262631 ], [ 85.387447, 28.261553 ], [ 85.386455, 28.260557 ], [ 85.385356, 28.259652 ], [ 85.384163, 28.258847 ], [ 85.382887, 28.258149 ], [ 85.381539, 28.257565 ], [ 85.380134, 28.257101 ], [ 85.378684, 28.256761 ], [ 85.377203, 28.256548 ], [ 85.375705, 28.256465 ], [ 85.374206, 28.256512 ], [ 85.372719, 28.25669 ], [ 85.371259, 28.256995 ], [ 85.36984, 28.257426 ], [ 85.368475, 28.257977 ], [ 85.367178, 28.258645 ], [ 85.365961, 28.259422 ], [ 85.364836, 28.2603 ], [ 85.363813, 28.261273 ], [ 85.362903, 28.262329 ], [ 85.362115, 28.263459 ], [ 85.361455, 28.264652 ], [ 85.36093, 28.265896 ], [ 85.360546, 28.26718 ], [ 85.360306, 28.268492 ], [ 85.360212, 28.269817 ], [ 85.360265, 28.271145 ], [ 85.360465, 28.272461 ], [ 85.36081, 28.273754 ], [ 85.361296, 28.275011 ], [ 85.36192, 28.276219 ], [ 85.362674, 28.277368 ], [ 85.363551, 28.278445 ], [ 85.364544, 28.279442 ], [ 85.365642, 28.280347 ], [ 85.366835, 28.281153 ], [ 85.368111, 28.281851 ], [ 85.369459, 28.282435 ], [ 85.370865, 28.282899 ], [ 85.372316, 28.283239 ], [ 85.373797, 28.283452 ], [ 85.375295, 28.283535 ], [ 85.376794, 28.283488 ], [ 85.378281, 28.28331 ], [ 85.379742, 28.283005 ], [ 85.381161, 28.282574 ], [ 85.382526, 28.282022 ], [ 85.383824, 28.281355 ], [ 85.385041, 28.280578 ], [ 85.386166, 28.279699 ], [ 85.387188, 28.278727 ], [ 85.388098, 28.27767 ], [ 85.388887, 28.27654 ], [ 85.389546, 28.275347 ], [ 85.390071, 28.274102 ], [ 85.390455, 28.272818 ], [ 85.390695, 28.271507 ], [ 85.390788, 28.270181 ] ] ] } },
{ "type": "Feature", "properties": { "zone_id": "Z4", "label": "Syabrubesi", "radius_m": 2000 }, "geometry": { "type": "Polygon", "coordinates": [ [ [ 85.351363, 28.163247 ], [ 85.351292, 28.161477 ], [ 85.351026, 28.159721 ], [ 85.350567, 28.157997 ], [ 85.349919, 28.156322 ], [ 85.349089, 28.154711 ], [ 85.348086, 28.153179 ], [ 85.346917, 28.151742 ], [ 85.345595, 28.150414 ], [ 85.344133, 28.149207 ], [ 85.342544, 28.148132 ], [ 85.340845, 28.147201 ], [ 85.33905, 28.146422 ], [ 85.337178, 28.145802 ], [ 85.335247, 28.145349 ], [ 85.333274, 28.145065 ], [ 85.33128, 28.144953 ], [ 85.329283, 28.145016 ], [ 85.327303, 28.145252 ], [ 85.325358, 28.145658 ], [ 85.323467, 28.146232 ], [ 85.321649, 28.146967 ], [ 85.319921, 28.147857 ], [ 85.3183, 28.148892 ], [ 85.316801, 28.150063 ], [ 85.315438, 28.151359 ], [ 85.314226, 28.152767 ], [ 85.313175, 28.154273 ], [ 85.312295, 28.155863 ], [ 85.311596, 28.157523 ], [ 85.311083, 28.159234 ], [ 85.310763, 28.160983 ], [ 85.310637, 28.16275 ], [ 85.310707, 28.16452 ], [ 85.310973, 28.166276 ], [ 85.311431, 28.168 ], [ 85.312078, 28.169675 ], [ 85.312908, 28.171287 ], [ 85.313911, 28.172819 ], [ 85.31508, 28.174256 ], [ 85.316401, 28.175584 ], [ 85.317863, 28.176792 ], [ 85.319452, 28.177867 ], [ 85.321152, 28.178798 ], [ 85.322947, 28.179577 ], [ 85.32482, 28.180197 ], [ 85.326752, 28.180651 ], [ 85.328725, 28.180935 ], [ 85.33072, 28.181046 ], [ 85.332717, 28.180984 ], [ 85.334699, 28.180748 ], [ 85.336644, 28.180341 ], [ 85.338535, 28.179768 ], [ 85.340354, 28.179032 ], [ 85.342082, 28.178143 ], [ 85.343703, 28.177107 ], [ 85.345203, 28.175936 ], [ 85.346565, 28.17464 ], [ 85.347777, 28.173231 ], [ 85.348828, 28.171725 ], [ 85.349707, 28.170134 ], [ 85.350406, 28.168475 ], [ 85.350918, 28.166763 ], [ 85.351238, 28.165014 ], [ 85.351363, 28.163247 ] ] ] } },
{ "type": "Feature", "properties": { "zone_id": "Z5", "label": "Betrawati", "radius_m": 2500 }, "geometry": { "type": "Polygon", "coordinates": [ [ [ 85.208406, 27.966333 ], [ 85.20832, 27.964121 ], [ 85.20799, 27.961926 ], [ 85.20742, 27.959771 ], [ 85.206615, 27.957676 ], [ 85.205582, 27.955661 ], [ 85.204332, 27.953745 ], [ 85.202876, 27.951948 ], [ 85.201229, 27.950286 ], [ 85.199407, 27.948775 ], [ 85.197426, 27.94743 ], [ 85.195307, 27.946264 ], [ 85.19307, 27.945288 ], [ 85.190735, 27.944511 ], [ 85.188326, 27.943942 ], [ 85.185866, 27.943584 ], [ 85.183378, 27.943443 ], [ 85.180886, 27.943519 ], [ 85.178415, 27.943811 ], [ 85.175988, 27.944317 ], [ 85.173629, 27.945031 ], [ 85.171359, 27.945948 ], [ 85.169202, 27.947058 ], [ 85.167177, 27.94835 ], [ 85.165305, 27.949812 ], [ 85.163604, 27.951429 ], [ 85.162088, 27.953188 ], [ 85.160775, 27.955069 ], [ 85.159675, 27.957056 ], [ 85.1588, 27.959129 ], [ 85.158157, 27.961268 ], [ 85.157754, 27.963453 ], [ 85.157595, 27.965662 ], [ 85.157679, 27.967875 ], [ 85.158008, 27.970069 ], [ 85.158577, 27.972225 ], [ 85.159382, 27.97432 ], [ 85.160414, 27.976335 ], [ 85.161664, 27.978251 ], [ 85.163119, 27.980049 ], [ 85.164766, 27.981712 ], [ 85.166588, 27.983223 ], [ 85.168569, 27.984568 ], [ 85.170688, 27.985735 ], [ 85.172926, 27.986711 ], [ 85.175262, 27.987488 ], [ 85.177672, 27.988058 ], [ 85.180133, 27.988415 ], [ 85.182622, 27.988557 ], [ 85.185114, 27.988481 ], [ 85.187587, 27.988189 ], [ 85.190014, 27.987683 ], [ 85.192375, 27.986968 ], [ 85.194645, 27.986051 ], [ 85.196803, 27.984941 ], [ 85.198828, 27.983649 ], [ 85.2007, 27.982186 ], [ 85.202402, 27.980568 ], [ 85.203917, 27.97881 ], [ 85.20523, 27.976928 ], [ 85.206329, 27.97494 ], [ 85.207204, 27.972867 ], [ 85.207845, 27.970728 ], [ 85.208247, 27.968543 ], [ 85.208406, 27.966333 ] ] ] } }
]
}
